{"amenity":"cinema","name":"FlyOver Canada","tags":{"addr:housenumber":"999","website":"https:\/\/www.flyovercanada.com\/","phone":"+1-604-620-8455","opening_hours":"Su-Sa 10:00-21:00","screen":"1","addr:street":"Canada Place","addr:unit":"201","addr:city":"Vancouver"},"weight":10,"distance":13.842395166,"loc":[49.2891958,-123.110351],"user_lon":-123.1101611111,"user_lat":49.2892083333}
{"amenity":"tourism","name":"Canada Place","tags":{"addr:city":"Vancouver","addr:housenumber":"999","addr:postcode":"V6C 3C1","addr:street":"Canada Place","alt_name":"Vancouver Convention Centre East","building":"yes","name":"Canada Place","name:ko":"\uce90\ub098\ub2e4 \ud50c\ub808\uc774\uc2a4","old_name":"Canadian Pavilion for Expo 86","tourism":"attraction","website":"https:\/\/www.canadaplace.ca\/","wheelchair":"yes","wikidata":"Q1032014","wikipedia":"en:Canada Place"},"weight":11,"distance":157.4625202192,"loc":[49.288404,-123.111948],"user_lon":-123.1101611111,"user_lat":49.2892083333}
{"amenity":"cafe","name":"Coal Harbour Cafe","tags":{},"weight":3,"distance":207.4936261158,"loc":[49.2883311,-123.1126862],"user_lon":-123.1101611111,"user_lat":49.2892083333}
{"amenity":"cafe","name":"Starbucks","tags":{"brand:wikidata":"Q37158","official_name":"Starbucks Coffee","addr:housenumber":"999","internet_access":"yes","brand:wikipedia":"en:Starbucks","internet_access:fee":"no","cuisine":"coffee_shop","addr:street":"Canada Place","takeaway":"yes","brand":"Starbucks"},"weight":3,"distance":284.3858939638,"loc":[49.2877059,-123.1133343],"user_lon":-123.1101611111,"user_lat":49.2892083333}
{"amenity":"restaurant","name":"Miku","tags":{"cuisine":"japanese"},"weight":7,"distance":306.9984419151,"loc":[49.2870647,-123.1128287],"user_lon":-123.1101611111,"user_lat":49.2892083333}
{"amenity":"restaurant","name":"Mahony and Sons","tags":{"addr:housenumber":"1055","website":"http:\/\/mahonyandsons.com\/","phone":"+1-604-647-7513","smoking":"no","reservation":"yes","outdoor_seating":"yes","addr:street":"Canada Place","addr:postcode":"V6C 0C3","addr:city":"Vancouver"},"weight":7,"distance":309.8595705292,"loc":[49.2893842,-123.114425],"user_lon":-123.1101611111,"user_lat":49.2892083333}
{"amenity":"fast_food","name":"Subway","tags":{"source:location":"extrapolation","brand:wikidata":"Q244457","brand:wikipedia":"en:Subway (restaurant)","cuisine":"sandwich","source":"survey","takeaway":"yes","brand":"Subway"},"weight":4,"distance":324.034183206,"loc":[49.2890568,-123.1146229],"user_lon":-123.1101611111,"user_lat":49.2892083333}
{"amenity":"cafe","name":"Blenz Coffee","tags":{"addr:housenumber":"232","opening_hours":"Mo-Fr 06:00-19:00; Sa-Su 08:00-19:00","cuisine":"coffee_shop","addr:street":"Howe Street","addr:postcode":"V6C","addr:city":"Vancouver"},"weight":3,"distance":344.3344502575,"loc":[49.2868125,-123.1131691],"user_lon":-123.1101611111,"user_lat":49.2892083333}
{"amenity":"cafe","name":"Bellaggio Caf\u00e9 & Gelateria","tags":{"outdoor_seating":"yes","addr:city":"Vancouver"},"weight":3,"distance":361.1785380657,"loc":[49.2887562,-123.1150926],"user_lon":-123.1101611111,"user_lat":49.2892083333}
{"amenity":"fast_food","name":"McDonald's","tags":{"source:location":"extrapolation","brand:wikidata":"Q38076","source:name":"receipt","brand:wikipedia":"en:McDonald's","drive_through":"no","cuisine":"burger","source":"survey","takeaway":"yes","brand":"McDonald's","addr:city":"Vancouver"},"weight":4,"distance":365.5366391434,"loc":[49.2873965,-123.1143665],"user_lon":-123.1101611111,"user_lat":49.2892083333}
{"amenity":"cafe","name":"Starbucks","tags":{"brand:wikidata":"Q37158","official_name":"Starbucks Coffee","brand:wikipedia":"en:Starbucks","cuisine":"coffee_shop","takeaway":"yes","brand":"Starbucks"},"weight":3,"distance":370.4636505203,"loc":[49.2873431,-123.1143935],"user_lon":-123.1101611111,"user_lat":49.2892083333}
{"amenity":"cafe","name":"Tim Hortons","tags":{"brand:wikidata":"Q175106","brand:wikipedia":"en:Tim Hortons","cuisine":"coffee_shop","takeaway":"yes","brand":"Tim Hortons","addr:city":"Vancouver"},"weight":3,"distance":377.2778040255,"loc":[49.2874193,-123.1145811],"user_lon":-123.1101611111,"user_lat":49.2892083333}
{"amenity":"cafe","name":"Starbucks","tags":{"brand:wikidata":"Q37158","official_name":"Starbucks Coffee","internet_access":"yes","brand:wikipedia":"en:Starbucks","internet_access:fee":"no","cuisine":"coffee_shop","takeaway":"yes","brand":"Starbucks","addr:city":"Vancouver"},"weight":3,"distance":388.2964457212,"loc":[49.2876133,-123.1149238],"user_lon":-123.1101611111,"user_lat":49.2892083333}
{"amenity":"fast_food","name":"Subway","tags":{"brand:wikidata":"Q244457","brand:wikipedia":"en:Subway (restaurant)","drive_through":"no","cuisine":"sandwich","takeaway":"yes","brand":"Subway"},"weight":4,"distance":389.5501906431,"loc":[49.2859088,-123.1119662],"user_lon":-123.1101611111,"user_lat":49.2892083333}
{"amenity":"cafe","name":"Jugo Juice","tags":{"outdoor_seating":"no"},"weight":3,"distance":392.345382107,"loc":[49.2858583,-123.1118595],"user_lon":-123.1101611111,"user_lat":49.2892083333}
{"amenity":"fast_food","name":"Chronic Tacos","tags":{"opening_hours":"Mo-Th 10:00-22:00; Fr-Sa 10:00-23:00; Su 10:00-21:00"},"weight":4,"distance":393.3982285773,"loc":[49.2860028,-123.1124564],"user_lon":-123.1101611111,"user_lat":49.2892083333}
{"amenity":"restaurant","name":"Hapa Izakaya","tags":{"cuisine":"japanese","addr:housenumber":"909","addr:street":"West Cordova Street","source":"survey"},"weight":7,"distance":396.742588463,"loc":[49.2874308,-123.1149042],"user_lon":-123.1101611111,"user_lat":49.2892083333}
{"amenity":"cafe","name":"Starbucks","tags":{"brand:wikidata":"Q37158","official_name":"Starbucks Coffee","brand:wikipedia":"en:Starbucks","cuisine":"coffee_shop","takeaway":"yes","brand":"Starbucks"},"weight":3,"distance":398.938780714,"loc":[49.285758,-123.1116688],"user_lon":-123.1101611111,"user_lat":49.2892083333}
{"amenity":"fast_food","name":"A&W","tags":{"internet_access":"wlan","cuisine":"burger"},"weight":4,"distance":398.9914682009,"loc":[49.2858989,-123.1122871],"user_lon":-123.1101611111,"user_lat":49.2892083333}
{"amenity":"pub","name":"Lions Pub","tags":{"addr:housenumber":"888","website":"http:\/\/www.lionspub.ca","phone":"+1-604-488-8602","opening_hours":"Mo-Tu 11:00-23:00; We-Sa 11:00-00:00; Su 12:00-22:00","addr:street":"West Cordova Street","addr:city":"Vancouver"},"weight":5,"distance":422.5240578962,"loc":[49.2869412,-123.1148363],"user_lon":-123.1101611111,"user_lat":49.2892083333}
{"amenity":"restaurant","name":"Rogue Kitchen & Wetbar","tags":{"addr:housenumber":"200","website":"https:\/\/roguewetbar.com\/","cuisine":"Global","addr:street":"Burrard Street","addr:postcode":"V6C 3L6","addr:city":"Vancouver"},"weight":7,"distance":429.8026526583,"loc":[49.2876624,-123.1155926],"user_lon":-123.1101611111,"user_lat":49.2892083333}
{"amenity":"restaurant","name":"Rogue Kitchen & Wetbar","tags":{"addr:housenumber":"601","website":"https:\/\/roguewetbar.com\/","addr:street":"West Cordova Street","addr:postcode":"V6B 1E1","addr:city":"Vancouver"},"weight":7,"distance":433.5831083284,"loc":[49.2853939,-123.1114016],"user_lon":-123.1101611111,"user_lat":49.2892083333}
{"amenity":"cafe","name":"Sciu\u00e9","tags":{"addr:housenumber":"602","phone":"+1-604-559-3435","cuisine":"coffee_shop","addr:street":"West Cordova Street","addr:postcode":"V6B 5A7","addr:city":"Vancouver"},"weight":3,"distance":455.9621654576,"loc":[49.2853345,-123.1122226],"user_lon":-123.1101611111,"user_lat":49.2892083333}
{"amenity":"cafe","name":"Mink","tags":{"addr:housenumber":"863","website":"https:\/\/www.minkchocolates.com\/","air_conditioning":"yes","internet_access":"wlan","phone":"+1-604-633-2451","opening_hours":"Mo-Fr 07:30-18:00; Sa-Su 09:30-17:00","cuisine":"chocolate","outdoor_seating":"yes","addr:street":"West Hastings Street","addr:postcode":"V6C 3N9","addr:city":"Vancouver"},"weight":3,"distance":472.0311816851,"loc":[49.2866225,-123.1153226],"user_lon":-123.1101611111,"user_lat":49.2892083333}
{"amenity":"cafe","name":"Tim Hortons","tags":{"source:location":"gps","brand:wikidata":"Q175106","website":"https:\/\/www.timhortons.com\/","internet_access":"wlan","brand:wikipedia":"en:Tim Hortons","cuisine":"coffee_shop","source":"survey","takeaway":"yes","brand":"Tim Hortons","operator":"Restaurant Brands International Inc."},"weight":3,"distance":482.8776069074,"loc":[49.2850471,-123.1120652],"user_lon":-123.1101611111,"user_lat":49.2892083333}
{"amenity":"pub","name":"Steamworks","tags":{"website":"http:\/\/steamworks.com\/brew-pub","microbrewery":"yes","shop":"alcohol","addr:postcode":"V6B 1B8","addr:city":"Vancouver","addr:housenumber":"375","phone":"+1-604-689-2739","smoking":"no","opening_hours":"Mo-Th,Su 11:30-12:00; Fr,Sa 11:30-01:00","outdoor_seating":"yes","addr:street":"Water Street","email":"info@steamworks.com"},"weight":5,"distance":486.1982135397,"loc":[49.2848692,-123.1109875],"user_lon":-123.1101611111,"user_lat":49.2892083333}
{"amenity":"pub","name":"Tap & Barrel","tags":{"website":"http:\/\/tapandbarrel.com","payment:credit_cards":"yes","diet:gluten_free":"yes","addr:postcode":"V6C 0C3","addr:unit":"76","addr:city":"Vancouver","addr:housenumber":"1055","phone":"+1-604-235-9827","smoking":"no","brewery":"yes","outdoor_seating":"yes","addr:street":"Canada Place","payment:debit_cards":"yes","email":"convention@tapandbarrel.com"},"weight":5,"distance":492.6075191968,"loc":[49.2898003,-123.1168924],"user_lon":-123.1101611111,"user_lat":49.2892083333}
{"amenity":"restaurant","name":"MoMo Sushi","tags":{"opening_hours":"Su-We 11:00-21:00; Th-Sa 11:00-22:00","wheelchair":"no","addr:housenumber":"353","addr:street":"Water Street"},"weight":7,"distance":500.5467886654,"loc":[49.2847075,-123.1100401],"user_lon":-123.1101611111,"user_lat":49.2892083333}
{"amenity":"cafe","name":"Caff\u00e8 Artigiano","tags":{"opening_hours":"Mo-Fr 06:00-17:30; Sa,Su,PH 07:00-17:00"},"weight":3,"distance":515.6206118873,"loc":[49.2856543,-123.1147275],"user_lon":-123.1101611111,"user_lat":49.2892083333}
{"amenity":"cafe","name":"Starbucks","tags":{"brand:wikidata":"Q37158","official_name":"Starbucks Coffee","brand:wikipedia":"en:Starbucks","cuisine":"coffee_shop","takeaway":"yes","brand":"Starbucks"},"weight":3,"distance":515.7733979435,"loc":[49.2859592,-123.1152363],"user_lon":-123.1101611111,"user_lat":49.2892083333}
{"amenity":"restaurant","name":"Botanist","tags":{"wheelchair":"yes","delivery":"no","note":"The restaurant is located inside the Fairmont Pacific Rim hotel. It features a dining room, outside sitting into the hotel garden as well as a bar\/lounge.","cuisine":"international;regional","addr:postcode":"V6C 0B9","takeaway":"yes","addr:city":"Vancouver","toilets:wheelchair":"yes","addr:housenumber":"1038","phone":"+1-604-695-5500","opening_hours":"Mo-Fr 06:30-22:00; Sa-Su 07:00-22:00","outdoor_seating":"yes","addr:street":"Canada Place","email":"info@botanistrestaurant.com"},"weight":7,"distance":517.8357520372,"loc":[49.2881797,-123.1171247],"user_lon":-123.1101611111,"user_lat":49.2892083333}
{"amenity":"cafe","name":"Trees Organic Coffee","tags":{"wheelchair":"no","addr:housenumber":"321","website":"https:\/\/treescoffee.com\/","addr:street":"Water Street"},"weight":3,"distance":518.522077258,"loc":[49.2845775,-123.1093205],"user_lon":-123.1101611111,"user_lat":49.2892083333}
{"amenity":"cafe","name":"Buro","tags":{"addr:housenumber":"356","addr:street":"West Cordova Street"},"weight":3,"distance":527.158990745,"loc":[49.2844688,-123.1103327],"user_lon":-123.1101611111,"user_lat":49.2892083333}
{"amenity":"cafe","name":"JJ Bean","tags":{"cuisine":"sandwich","addr:street":"Burrard Street","source":"Local knowledge","internet_access":"wlan","internet_access:fee":"no"},"weight":3,"distance":529.043781716,"loc":[49.2874022,-123.1169095],"user_lon":-123.1101611111,"user_lat":49.2892083333}
{"amenity":"pub","name":"The Black Frog","tags":{"addr:housenumber":"108","website":"www.theblackfrog.ca","addr:street":"Cambie Street"},"weight":5,"distance":530.7649687016,"loc":[49.2845626,-123.1084807],"user_lon":-123.1101611111,"user_lat":49.2892083333}
{"amenity":"tourism","name":"Birks Clock","tags":{"amenity":"clock","display":"analog","faces":"4","name":"Birks Clock","old_name":"Trorey","operator":"Birks","support":"pole","tourism":"attraction","visibility":"street"},"weight":11,"distance":531.0405324124,"loc":[49.2851447,-123.1140076],"user_lon":-123.1101611111,"user_lat":49.2892083333}
{"amenity":"restaurant","name":"Scoozis","tags":{"cuisine":"italian","addr:housenumber":"445","addr:street":"Howe Street","addr:city":"Vancouver"},"weight":7,"distance":534.693712104,"loc":[49.2857988,-123.1153597],"user_lon":-123.1101611111,"user_lat":49.2892083333}
{"amenity":"tourism","name":"2010 Olympic Flame","tags":{"historic":"monument","name":"2010 Olympic Flame","tourism":"attraction","wheelchair":"yes"},"weight":11,"distance":541.383573451,"loc":[49.2893832,-123.117621],"user_lon":-123.1101611111,"user_lat":49.2892083333}
{"amenity":"tourism","name":"Gastown Steam Clock","tags":{"addr:housenumber":"305","addr:street":"Water Street","amenity":"clock","display":"analog","historic":"monument","name":"Gastown Steam Clock","support":"ground","tourism":"attraction","visibility":"street","wheelchair":"yes","wikidata":"Q477663","wikipedia":"en:Steam clock#Gastown steam clock"},"weight":11,"distance":544.2937142662,"loc":[49.2843841,-123.1088901],"user_lon":-123.1101611111,"user_lat":49.2892083333}
{"amenity":"cafe","name":"Edel Express","tags":{},"weight":3,"distance":546.964938454,"loc":[49.2862256,-123.1161579],"user_lon":-123.1101611111,"user_lat":49.2892083333}
{"amenity":"cafe","name":"Starbucks","tags":{"brand:wikidata":"Q37158","official_name":"Starbucks Coffee","internet_access":"wlan","brand:wikipedia":"en:Starbucks","opening_hours":"Mo-Fr 06:00-22:00; Sa 06:30-22:00; Su 06:30-21:00","cuisine":"coffee_shop","takeaway":"yes","brand":"Starbucks"},"weight":3,"distance":547.3599237749,"loc":[49.2843874,-123.1086358],"user_lon":-123.1101611111,"user_lat":49.2892083333}
{"amenity":"restaurant","name":"Elephant & Castle","tags":{"opening_hours":"Su-Tu 11:00-23:00; We-Sa 11:00-00:00","addr:housenumber":"385","addr:street":"Burrard Street"},"weight":7,"distance":547.5547327232,"loc":[49.2873114,-123.1171281],"user_lon":-123.1101611111,"user_lat":49.2892083333}
{"amenity":"cafe","name":"Starbucks","tags":{"brand:wikidata":"Q37158","official_name":"Starbucks Coffee","addr:housenumber":"1067","website":"starbucks.ca","brand:wikipedia":"en:Starbucks","cuisine":"coffee_shop","addr:street":"West Cordova Street","takeaway":"yes","brand":"Starbucks"},"weight":3,"distance":552.4909852302,"loc":[49.2885656,-123.1177149],"user_lon":-123.1101611111,"user_lat":49.2892083333}
{"amenity":"cafe","name":"Brioche","tags":{"addr:housenumber":"401","addr:street":"West Cordova Street"},"weight":3,"distance":558.1509295414,"loc":[49.2841913,-123.1099164],"user_lon":-123.1101611111,"user_lat":49.2892083333}
{"amenity":"restaurant","name":"Water Street Cafe","tags":{"addr:housenumber":"300","addr:street":"Water Street"},"weight":7,"distance":559.2109808537,"loc":[49.2842334,-123.1090325],"user_lon":-123.1101611111,"user_lat":49.2892083333}
{"amenity":"bar","name":"Red Room","tags":{"addr:housenumber":"398","addr:street":"Richards Street"},"weight":6,"distance":560.805098278,"loc":[49.2842279,-123.1113795],"user_lon":-123.1101611111,"user_lat":49.2892083333}
{"amenity":"cafe","name":"The Cockpit","tags":{"level":"-1","name:en":"The Cockpit"},"weight":3,"distance":560.8121211478,"loc":[49.290443,-123.1176585],"user_lon":-123.1101611111,"user_lat":49.2892083333}
{"amenity":"cafe","name":"Quantum Coffee","tags":{"opening_hours":"Mo-Fr 07:00-19:00; Sa-Su 08:00-19:00","addr:housenumber":"451","addr:street":"Granville Street","internet_access":"wlan"},"weight":3,"distance":565.9730891548,"loc":[49.2850193,-123.1145937],"user_lon":-123.1101611111,"user_lat":49.2892083333}
{"amenity":"fast_food","name":"Kita no Donburi","tags":{"addr:housenumber":"423","addr:street":"Seymour Street"},"weight":4,"distance":566.0843865645,"loc":[49.2845542,-123.1133241],"user_lon":-123.1101611111,"user_lat":49.2892083333}
{"amenity":"cafe","name":"Tim Hortons","tags":{"brand:wikidata":"Q175106","addr:housenumber":"490","brand:wikipedia":"en:Tim Hortons","cuisine":"coffee_shop","addr:street":"Hornby Street","takeaway":"yes","brand":"Tim Hortons"},"weight":3,"distance":566.5101734819,"loc":[49.2860889,-123.1163367],"user_lon":-123.1101611111,"user_lat":49.2892083333}
{"amenity":"restaurant","name":"Nightingale","tags":{"addr:housenumber":"1017","website":"http:\/\/www.hawknightingale.com","phone":"+1-604-695-9500","addr:postcode":"V6E 0C4","email":"info@hawknightingale.com"},"weight":7,"distance":570.3565986621,"loc":[49.2874102,-123.1175261],"user_lon":-123.1101611111,"user_lat":49.2892083333}
{"amenity":"tourism","name":"The Pink Alley","tags":{"alt_name":"Alley-Oop","name":"The Pink Alley","tourism":"attraction"},"weight":11,"distance":574.2188713914,"loc":[49.2846556,-123.1138977],"user_lon":-123.1101611111,"user_lat":49.2892083333}
{"amenity":"cafe","name":"Trees Coffee","tags":{"addr:housenumber":"450","addr:street":"Granville Street"},"weight":3,"distance":575.0459710672,"loc":[49.2848065,-123.1143227],"user_lon":-123.1101611111,"user_lat":49.2892083333}
{"amenity":"cafe","name":"Starbucks","tags":{"source:location":"extrapolation","brand:wikidata":"Q37158","official_name":"Starbucks Coffee","addr:housenumber":"433","brand:wikipedia":"en:Starbucks","cuisine":"coffee_shop","addr:street":"Seymour Street","source":"survey","takeaway":"yes","brand":"Starbucks"},"weight":3,"distance":578.5872357503,"loc":[49.2844631,-123.1134341],"user_lon":-123.1101611111,"user_lat":49.2892083333}
{"amenity":"pub","name":"Pourhouse","tags":{"diet:vegetarian":"yes","addr:housenumber":"162","website":"http:\/\/www.pourhousevancouver.com","internet_access":"wlan","phone":"+1-604-568-7022","opening_hours":"Mo-Th,Su 17:00-00:00; Fr,Sa 17:00-01:00","addr:street":"Water Street","addr:postcode":"V6B 1B2"},"weight":5,"distance":579.0745099723,"loc":[49.2841314,-123.1083829],"user_lon":-123.1101611111,"user_lat":49.2892083333}
{"amenity":"fast_food","name":"Pholicious","tags":{"addr:street":"West Hastings Street"},"weight":4,"distance":579.791376012,"loc":[49.284215,-123.112463],"user_lon":-123.1101611111,"user_lat":49.2892083333}
{"amenity":"restaurant","name":"Hydra Estiatorio Mediterranean","tags":{"addr:housenumber":"825","addr:street":"West Pender Street"},"weight":7,"distance":586.2134384907,"loc":[49.2857312,-123.1162364],"user_lon":-123.1101611111,"user_lat":49.2892083333}
{"amenity":"cafe","name":"Creme de la Crumb","tags":{"addr:housenumber":"466","addr:street":"Granville Street"},"weight":3,"distance":586.3714266937,"loc":[49.2847372,-123.1144476],"user_lon":-123.1101611111,"user_lat":49.2892083333}
{"amenity":"bar","name":"One Under Vancouver","tags":{"addr:housenumber":"476","addr:street":"Granville Street"},"weight":6,"distance":587.9427124381,"loc":[49.2847445,-123.114506],"user_lon":-123.1101611111,"user_lat":49.2892083333}
{"amenity":"cafe","name":"Timbertrain","tags":{"opening_hours":"Mo-Fr 07:00-18:00; Sa,Su 08:00-18:00","description":"A cafe for coffee and cookies.","addr:housenumber":"311","addr:street":"West Cordova Street"},"weight":3,"distance":591.617015073,"loc":[49.2839055,-123.1094962],"user_lon":-123.1101611111,"user_lat":49.2892083333}
{"amenity":"cafe","name":"Blenz Coffee","tags":{"opening_hours":"24\/7","addr:street":"West Hastings Street"},"weight":3,"distance":596.1137047658,"loc":[49.2840267,-123.1122692],"user_lon":-123.1101611111,"user_lat":49.2892083333}
{"amenity":"bar","name":"131 Water Kitchen & Bar","tags":{"addr:housenumber":"131","addr:street":"Water Street","addr:city":"Vancouver"},"weight":6,"distance":596.4530960611,"loc":[49.284169,-123.1073434],"user_lon":-123.1101611111,"user_lat":49.2892083333}
{"amenity":"restaurant","name":"The Butcher & Bullock","tags":{"website":"http:\/\/donnellygroup.ca\/the-butcher-bullock\/","cuisine":"burger","addr:postcode":"V6C 1L6","operator":"Donnelly Group","addr:city":"Vancouver","addr:housenumber":"911","bar":"yes","phone":"+1-604-662-8866","smoking":"no","opening_hours":"Mo-Fr 11:30-03:00; Sa-Su 11:00-03:00","brewery":"yes","addr:street":"West Pender Street","email":"butcherandbullock@donnellygroup.ca"},"weight":7,"distance":598.4620493891,"loc":[49.2861746,-123.1169768],"user_lon":-123.1101611111,"user_lat":49.2892083333}
{"amenity":"restaurant","name":"Greedy Pig","tags":{"addr:housenumber":"307","addr:street":"West Cordova Street"},"weight":7,"distance":598.7543992747,"loc":[49.283846,-123.109409],"user_lon":-123.1101611111,"user_lat":49.2892083333}
{"amenity":"cafe","name":"CoCo Fresh Tea & Juice","tags":{"cuisine":"bubble_tea","addr:housenumber":"655","addr:street":"West Pender Street","addr:city":"Vancouver"},"weight":3,"distance":604.8466493652,"loc":[49.2845132,-123.114372],"user_lon":-123.1101611111,"user_lat":49.2892083333}
{"amenity":"fast_food","name":"Subway","tags":{"brand:wikidata":"Q244457","brand:wikipedia":"en:Subway (restaurant)","cuisine":"sandwich","addr:street":"Richards Street","takeaway":"yes","brand":"Subway"},"weight":4,"distance":609.8508700017,"loc":[49.2839142,-123.1123573],"user_lon":-123.1101611111,"user_lat":49.2892083333}
{"amenity":"cafe","name":"Bamboo Cafe","tags":{"addr:housenumber":"301"},"weight":3,"distance":611.7943939559,"loc":[49.2837399,-123.1092308],"user_lon":-123.1101611111,"user_lat":49.2892083333}
{"amenity":"cafe","name":"Prado","tags":{"addr:housenumber":"117","opening_hours":"07:00-18:00","cuisine":"coffee_shop","addr:street":"Water Street","addr:postcode":"V6B 4M3","takeaway":"yes"},"weight":3,"distance":611.8650165387,"loc":[49.2841207,-123.1069471],"user_lon":-123.1101611111,"user_lat":49.2892083333}
{"amenity":"cafe","name":"Waves Coffee","tags":{"opening_hours":"Mo-Fr 07:00-24:00, Sa 08:00-24:00, Su 08:00-22:00","addr:housenumber":"492","addr:street":"West Hastings Street"},"weight":3,"distance":612.1569305146,"loc":[49.2838195,-123.1118877],"user_lon":-123.1101611111,"user_lat":49.2892083333}
{"amenity":"cafe","name":"Tim Hortons","tags":{"brand:wikidata":"Q175106","wheelchair":"yes","website":"https:\/\/www.timhortons.com\/","brand:wikipedia":"en:Tim Hortons","opening_hours":"Mo,Tu 10:00-19:00; We-Fr 10:00-21:00; Sa 10:00-20:00; Su 11:00-19:00","cuisine":"coffee_shop","takeaway":"yes","brand":"Tim Hortons","operator":"Restaurant Brands International Inc."},"weight":3,"distance":615.1179981252,"loc":[49.284954,-123.115582],"user_lon":-123.1101611111,"user_lat":49.2892083333}
{"amenity":"pub","name":"Moose's Down Under","tags":{"opening_hours":"Mo,Tu 07:00-21:00; We,Th 07:00-22:00; Fr 07:00-23:00; Sa 17:00-23:00","cuisine":"burger","addr:housenumber":"830","addr:street":"West Pender Street"},"weight":5,"distance":615.9239252632,"loc":[49.2855675,-123.1165611],"user_lon":-123.1101611111,"user_lat":49.2892083333}
{"amenity":"cafe","name":"Sciu\u00e9","tags":{},"weight":3,"distance":619.7897013667,"loc":[49.2852515,-123.1161798],"user_lon":-123.1101611111,"user_lat":49.2892083333}
{"amenity":"restaurant","name":"Caveman Cafe","tags":{"addr:housenumber":"605","website":"https:\/\/www.cavemancafe.ca","diet:paleo":"yes","addr:street":"West Pender Street","diet:dairy_free":"yes","addr:city":"Vancouver"},"weight":7,"distance":621.2406059081,"loc":[49.2841885,-123.1139212],"user_lon":-123.1101611111,"user_lat":49.2892083333}
{"amenity":"restaurant","name":"Chewies","tags":{"wheelchair":"yes","cuisine":"oyster_bar"},"weight":7,"distance":621.9068194455,"loc":[49.2878856,-123.1184927],"user_lon":-123.1101611111,"user_lat":49.2892083333}
{"amenity":"fast_food","name":"Waffle Frenzy","tags":{"addr:street":"Richards Street"},"weight":4,"distance":622.6585561574,"loc":[49.2837533,-123.1120999],"user_lon":-123.1101611111,"user_lat":49.2892083333}
{"amenity":"cafe","name":"Starbucks","tags":{"brand:wikidata":"Q37158","official_name":"Starbucks Coffee","wheelchair":"yes","brand:wikipedia":"en:Starbucks","opening_hours":"Mo-Th 05:30-21:00; Fr 05:30-22:00; Sa 07:00-22:00; Su 07:00-21:00","cuisine":"coffee_shop","takeaway":"yes","brand":"Starbucks"},"weight":3,"distance":622.9162898206,"loc":[49.2846685,-123.115193],"user_lon":-123.1101611111,"user_lat":49.2892083333}
{"amenity":"cafe","name":"Blenz Coffee","tags":{"addr:housenumber":"401","website":"https:\/\/blenz.com\/","phone":"+1-604-684-7000","opening_hours":"Mo-Fr 06:00-17:00","addr:street":"Burrard Street","addr:postcode":"V6C 3R2"},"weight":3,"distance":624.3887522532,"loc":[49.2870382,-123.1181012],"user_lon":-123.1101611111,"user_lat":49.2892083333}
{"amenity":"fast_food","name":"2001 Flavors","tags":{"addr:housenumber":"595","addr:street":"West Pender Street"},"weight":4,"distance":628.9389594414,"loc":[49.2840103,-123.1135799],"user_lon":-123.1101611111,"user_lat":49.2892083333}
{"amenity":"restaurant","name":"Gyoza Bar","tags":{"addr:housenumber":"622","addr:street":"West Pender Street"},"weight":7,"distance":630.6621991245,"loc":[49.2842663,-123.1144275],"user_lon":-123.1101611111,"user_lat":49.2892083333}
{"amenity":"fast_food","name":"Me Cr\u00eapes","tags":{"opening_hours":"Mo-Fr 08:30-14:30; Sa-Su 10:00-15:00","addr:housenumber":"589","addr:street":"West Pender Street","addr:city":"Vancouver"},"weight":4,"distance":631.6564797695,"loc":[49.2839646,-123.1135104],"user_lon":-123.1101611111,"user_lat":49.2892083333}
{"amenity":"cafe","name":"Bonchaz","tags":{"addr:housenumber":"426","addr:street":"West Hastings Street","addr:city":"Vancouver"},"weight":3,"distance":632.3226815113,"loc":[49.2835903,-123.111511],"user_lon":-123.1101611111,"user_lat":49.2892083333}
{"amenity":"fast_food","name":"Burger King","tags":{"brand:wikidata":"Q177054","addr:housenumber":"612","brand:wikipedia":"en:Burger King","cuisine":"burger","addr:street":"West Pender Street","takeaway":"yes","brand":"Burger King"},"weight":4,"distance":638.3257765237,"loc":[49.2841391,-123.1142912],"user_lon":-123.1101611111,"user_lat":49.2892083333}
{"amenity":"fast_food","name":"Kyzock - House of Sushi Bowl","tags":{"cuisine":"japanese;sushi","addr:housenumber":"559","addr:street":"West Pender Street"},"weight":4,"distance":639.8890519712,"loc":[49.2838332,-123.113312],"user_lon":-123.1101611111,"user_lat":49.2892083333}
{"amenity":"fast_food","name":"Fresh Slice","tags":{"addr:street":"West Pender Street"},"weight":4,"distance":640.6861263726,"loc":[49.2838178,-123.1132808],"user_lon":-123.1101611111,"user_lat":49.2892083333}
{"amenity":"pub","name":"Malone's","tags":{"addr:housenumber":"608","website":"http:\/\/www.malones.bc.ca\/","addr:street":"West Pender Street","source":"survey","addr:postcode":"V6B 1V8"},"weight":5,"distance":643.8662903067,"loc":[49.2840215,-123.1141074],"user_lon":-123.1101611111,"user_lat":49.2892083333}
{"amenity":"fast_food","name":"Sushi Spin Roll","tags":{"addr:housenumber":"535","addr:street":"West Pender Street"},"weight":4,"distance":646.0888756119,"loc":[49.2837386,-123.1131665],"user_lon":-123.1101611111,"user_lat":49.2892083333}
{"amenity":"fast_food","name":"Cham Mani","tags":{"opening_hours":"Mo-Fr 10:30-18:00","addr:housenumber":"529","addr:street":"West Pender Street","phone":"+1-604-681-4422","addr:city":"Vancouver"},"weight":4,"distance":648.4268977233,"loc":[49.2837054,-123.1131194],"user_lon":-123.1101611111,"user_lat":49.2892083333}
{"amenity":"restaurant","name":"The Flying Pig Gastown","tags":{},"weight":7,"distance":652.8160516069,"loc":[49.2838137,-123.1066099],"user_lon":-123.1101611111,"user_lat":49.2892083333}
{"amenity":"fast_food","name":"Koala Kebabs","tags":{"opening_hours":"Mo-Fr 11:30-18:00","addr:housenumber":"519","addr:street":"West Pender Street"},"weight":4,"distance":653.5663214841,"loc":[49.2836356,-123.1130258],"user_lon":-123.1101611111,"user_lat":49.2892083333}
{"amenity":"pub","name":"Browns Crafthouse","tags":{"opening_hours":"Mo-Th 10:45-00:00; Fr 10:45-01:00; Sa 10:00-01:00; Su 10:00-00:00","addr:housenumber":"589","website":"https:\/\/www.brownscrafthouse.com\/","addr:street":"West Pender Street","phone":"+1-604-262-4020"},"weight":5,"distance":654.1388932287,"loc":[49.2838402,-123.1138503],"user_lon":-123.1101611111,"user_lat":49.2892083333}
{"amenity":"restaurant","name":"Shogun","tags":{"opening_hours":"Mo-Fr 10:00-16:00","cuisine":"japanese","addr:housenumber":"518","addr:street":"Hornby Street","addr:city":"Vancouver"},"weight":7,"distance":656.3991650785,"loc":[49.2854943,-123.1171956],"user_lon":-123.1101611111,"user_lat":49.2892083333}
{"amenity":"cafe","name":"Moii Cafe","tags":{"opening_hours":"Mo-Fr 12:00-18:00","addr:housenumber":"505","addr:street":"West Pender Street","addr:city":"Vancouver"},"weight":3,"distance":656.4652902794,"loc":[49.2835821,-123.1129034],"user_lon":-123.1101611111,"user_lat":49.2892083333}
{"amenity":"restaurant","name":"JOEY Bentall One","tags":{"opening_hours":"Mo-Th 11:00-24:00; Fr 11:00-01:00; Sa 11:30-01:00; Su 11:30-24:00","addr:housenumber":"507","website":"https:\/\/joeyrestaurants.com\/","addr:street":"Burrard Street","source":"OpenstreetBugs \/ Bing"},"weight":7,"distance":657.1568281477,"loc":[49.2866651,-123.11834],"user_lon":-123.1101611111,"user_lat":49.2892083333}
{"amenity":"cafe","name":"Indigo Age","tags":{"opening_hours":"We-Su 11:00-19:00","description":"vegan caf\u00e9","addr:housenumber":"436","addr:street":"Richards Street","diet:vegan":"only"},"weight":3,"distance":657.5979301706,"loc":[49.2834975,-123.1125167],"user_lon":-123.1101611111,"user_lat":49.2892083333}
{"amenity":"restaurant","name":"Cartems Donuterie","tags":{"addr:housenumber":"534","phone":"+1-778-708-0996","cuisine":"donut","addr:street":"West Pender Street","addr:postcode":"V6B 1V3","addr:city":"Vancouver"},"weight":7,"distance":659.6704391627,"loc":[49.2837118,-123.1135835],"user_lon":-123.1101611111,"user_lat":49.2892083333}
{"amenity":"fast_food","name":"Twin Leaf","tags":{},"weight":4,"distance":663.6021701955,"loc":[49.2854427,-123.1172593],"user_lon":-123.1101611111,"user_lat":49.2892083333}
{"amenity":"park","name":"Portal Park","tags":{"addr:street":"W Hastings Street"},"weight":8,"distance":666.0612260565,"loc":[49.288042,-123.119169],"user_lon":-123.1101611111,"user_lat":49.2892083333}
{"amenity":"restaurant","name":"Chihuahua's","tags":{"addr:street":"Seymour Street"},"weight":7,"distance":669.0213855781,"loc":[49.2838527,-123.1143645],"user_lon":-123.1101611111,"user_lat":49.2892083333}
{"amenity":"restaurant","name":"Meat & Bread","tags":{"addr:housenumber":"1033","website":"http:\/\/meatandbread.ca","opening_hours":"Mo-Fr 11:00-16:00","cuisine":"sandwich","addr:street":"West Pender Street","addr:postcode":"V6E 2M6","addr:city":"Vancouver"},"weight":7,"distance":672.008757454,"loc":[49.2872474,-123.1189254],"user_lon":-123.1101611111,"user_lat":49.2892083333}
{"amenity":"cafe","name":"Revolver","tags":{"wheelchair":"no","addr:housenumber":"325","alt_name":"Revolver Coffee","website":"http:\/\/revolvercoffee.ca\/","opening_hours":"Mo-Fr 07:30-18:00; Sa 09:00-18:00","cuisine":"coffee_shop","addr:street":"Cambie Street","addr:postcode":"V6B 1H7","addr:city":"Vancouver"},"weight":3,"distance":673.180284396,"loc":[49.2831716,-123.1094595],"user_lon":-123.1101611111,"user_lat":49.2892083333}
{"amenity":"pub","name":"The Cambie","tags":{"toilets:wheelchair":"no","wheelchair":"limited","addr:housenumber":"300","addr:street":"Cambie Street","addr:city":"Vancouver"},"weight":5,"distance":673.779055982,"loc":[49.2831924,-123.1090499],"user_lon":-123.1101611111,"user_lat":49.2892083333}
{"amenity":"pub","name":"The Lamplighter Public House","tags":{"addr:housename":"92","addr:street":"Water Streer","operator":"Donnelly Group","addr:city":"Vancouver"},"weight":5,"distance":674.0637716139,"loc":[49.2837114,-123.106243],"user_lon":-123.1101611111,"user_lat":49.2892083333}
{"amenity":"fast_food","name":"Assembli","tags":{"cuisine":"pizza"},"weight":4,"distance":675.5115669956,"loc":[49.2875974,-123.1191416],"user_lon":-123.1101611111,"user_lat":49.2892083333}
{"amenity":"tourism","name":"Chali Rosso","tags":{"addr:housenumber":"549","addr:street":"Howe Street","name":"Chali Rosso","tourism":"gallery"},"weight":11,"distance":684.5987950001,"loc":[49.2848345,-123.1168041],"user_lon":-123.1101611111,"user_lat":49.2892083333}
{"amenity":"bar","name":"Yagger's","tags":{"addr:housenumber":"433","addr:street":"West Pender Street"},"weight":6,"distance":686.8682941822,"loc":[49.283201,-123.1123664],"user_lon":-123.1101611111,"user_lat":49.2892083333}
{"amenity":"tourism","name":"CCHQ Vapour Lounge","tags":{"name":"CCHQ Vapour Lounge","tourism":"attraction"},"weight":11,"distance":688.3586633963,"loc":[49.2830192,-123.1099575],"user_lon":-123.1101611111,"user_lat":49.2892083333}
{"amenity":"restaurant","name":"The Old Spaghetti Factory","tags":{"diet:vegetarian":"yes","addr:housenumber":"53","website":"http:\/\/www.oldspaghettifactory.ca\/locations\/gastown","haunted":"yes","cuisine":"italian","name:en":"The Old Spaghetti Factory","addr:street":"Water Street"},"weight":7,"distance":690.450939449,"loc":[49.2838437,-123.1053674],"user_lon":-123.1101611111,"user_lat":49.2892083333}
{"amenity":"fast_food","name":"Meatball Kitchen","tags":{"opening_hours":"Mo-Su 11:30-18:00","outdoor_seating":"no","addr:street":"Cambie Street","drive_through":"no"},"weight":4,"distance":692.4218757678,"loc":[49.2830143,-123.1091786],"user_lon":-123.1101611111,"user_lat":49.2892083333}
{"amenity":"cafe","name":"New Amsterdam Cafe","tags":{"created_by":"Potlatch 0.10f"},"weight":3,"distance":692.529057651,"loc":[49.2829831,-123.1098733],"user_lon":-123.1101611111,"user_lat":49.2892083333}
{"amenity":"cafe","name":"Blenz Coffee","tags":{"addr:housenumber":"550","website":"https:\/\/blenz.com\/","phone":"+1-604-687-6177","opening_hours":"Mo-Fr 06:00-18:00","cuisine":"coffee_shop","addr:street":"Burrard Street","addr:postcode":"V6C 2B5"},"weight":3,"distance":692.6389333319,"loc":[49.2859301,-123.1182815],"user_lon":-123.1101611111,"user_lat":49.2892083333}
{"amenity":"restaurant","name":"Joyeaux Caf\u00e9 and Restaurant","tags":{"addr:housenumber":"551","phone":"+1-604-681-9168","cuisine":"asian","addr:street":"Howe Street","addr:postcode":"V6C 2C2","addr:city":"Vancouver"},"weight":7,"distance":693.254473422,"loc":[49.2847774,-123.1168853],"user_lon":-123.1101611111,"user_lat":49.2892083333}
{"amenity":"restaurant","name":"The Charles Bar","tags":{"addr:housenumber":"136","phone":"+1-604-568-8040","opening_hours":"Mo-Th 11:30-24:00; Fr,Sa 11:30-03:00; Su 10:00-24:00","cuisine":"international","addr:street":"West Cordova Street","addr:city":"Vancouver"},"weight":7,"distance":693.9993881323,"loc":[49.2830756,-123.1083843],"user_lon":-123.1101611111,"user_lat":49.2892083333}
{"amenity":"restaurant","name":"La Taqueria","tags":{"addr:housenumber":"322","website":"http:\/\/www.lataqueria.ca","phone":"+1-604-568-4406","smoking":"no","opening_hours":"Mo-Th 11:00-21:00; Fr-Sa 11:00-02:00; Su 12:00-18:00","cuisine":"mexican","addr:street":"West Hastings Street","addr:postcode":"V6B 1K6","takeaway":"yes"},"weight":7,"distance":694.6471564307,"loc":[49.2829671,-123.1105765],"user_lon":-123.1101611111,"user_lat":49.2892083333}
{"amenity":"fast_food","name":"Subway","tags":{"brand:wikidata":"Q244457","wheelchair":"yes","addr:housenumber":"541","brand:wikipedia":"en:Subway (restaurant)","opening_hours":"24\/7","cuisine":"sandwich","addr:street":"Granville Street","takeaway":"yes","brand":"Subway"},"weight":4,"distance":696.7967298951,"loc":[49.284191,-123.1159168],"user_lon":-123.1101611111,"user_lat":49.2892083333}
{"amenity":"restaurant","name":"Jules Bistro","tags":{"addr:housenumber":"216","addr:street":"Abbott Street","addr:city":"Vancouver"},"weight":7,"distance":698.3919623052,"loc":[49.2834234,-123.1064112],"user_lon":-123.1101611111,"user_lat":49.2892083333}
{"amenity":"restaurant","name":"Kim House","tags":{"addr:housenumber":"538","addr:street":"Seymour Street","phone":"+1-604-689-8883"},"weight":7,"distance":699.9069257893,"loc":[49.2835359,-123.1143437],"user_lon":-123.1101611111,"user_lat":49.2892083333}
{"amenity":"restaurant","name":"Haru Korean Kitchen","tags":{"opening_hours":"Mo-Fr 11:30-21:00; Sa-Su 12:00-21:00","cuisine":"korean","addr:housenumber":"324","outdoor_seating":"no","addr:street":"Cambie Street"},"weight":7,"distance":700.0754044681,"loc":[49.2829428,-123.1092138],"user_lon":-123.1101611111,"user_lat":49.2892083333}
{"amenity":"restaurant","name":"Ha Long Bay","tags":{"opening_hours":"Mo-Fr 11:00-20:00","cuisine":"vietnamese","addr:housenumber":"430","addr:street":"West Pender Street","takeaway":"yes"},"weight":7,"distance":705.889081242,"loc":[49.2830665,-123.1126225],"user_lon":-123.1101611111,"user_lat":49.2892083333}
{"amenity":"fast_food","name":"Hiro Sushi","tags":{"addr:housenumber":"142","website":"http:\/\/www.hirojapan.ca","phone":"+1-604-566-9393","opening_hours":"Mo-Fr 10:00-20:00; Sa 10:00-19:00","cuisine":"sushi","addr:street":"West Cordova Street","email":"hirojapanbc@yahoo.com"},"weight":4,"distance":711.3627749268,"loc":[49.2829336,-123.1082494],"user_lon":-123.1101611111,"user_lat":49.2892083333}
{"amenity":"fast_food","name":"Baghdad Cafe","tags":{"opening_hours":"Mo-Fr 10:00-22:00; Sa 12:00-22:00","addr:housenumber":"548","addr:street":"Seymour Street"},"weight":4,"distance":713.9140794385,"loc":[49.2834377,-123.1144759],"user_lon":-123.1101611111,"user_lat":49.2892083333}
{"amenity":"bar","name":"Pub 340","tags":{"addr:housenumber":"340","addr:street":"Cambie Street","addr:city":"Vancouver"},"weight":6,"distance":714.5187288224,"loc":[49.2828092,-123.1092642],"user_lon":-123.1101611111,"user_lat":49.2892083333}
{"amenity":"cafe","name":"Nemesis","tags":{"opening_hours":"Mo-Fr 08:00-18:00; Sa-Su 09:00-17:00","addr:housenumber":"302","website":"https:\/\/www.nemesis.coffee\/","name:en":"Nemesis","addr:street":"West Hastings Street"},"weight":3,"distance":716.6318828924,"loc":[49.282764,-123.1102832],"user_lon":-123.1101611111,"user_lat":49.2892083333}
{"amenity":"restaurant","name":"Nuba","tags":{"toilets:wheelchair":"yes","diet:vegetarian":"yes","wheelchair":"no","addr:housenumber":"207","website":"https:\/\/www.nuba.ca\/","phone":"+1-604-688-1655","opening_hours":"Mo-Th 11:30-21:00; Fr 11:30-22:00; Sa 11:00-22:00; Su 11:00-21:00","cuisine":"lebanese","addr:street":"West Hastings Street","takeaway":"yes"},"weight":7,"distance":717.8646159178,"loc":[49.2827611,-123.1096481],"user_lon":-123.1101611111,"user_lat":49.2892083333}
{"amenity":"cafe","name":"Mario's","tags":{"addr:street":"Howe Street"},"weight":3,"distance":718.6814803066,"loc":[49.2846002,-123.1171091],"user_lon":-123.1101611111,"user_lat":49.2892083333}
{"amenity":"restaurant","name":"La Casita","tags":{"addr:province":"BC","addr:housenumber":"101","phone":"+1-604-646-2444","opening_hours":"Mo-Th 11:30-23:00; Fr,Sa 11:30-02:00; Su 12:00-23:00","addr:street":"West Cordova Street","addr:postcode":"V6B 1E1","addr:city":"Vancouver"},"weight":7,"distance":721.428369877,"loc":[49.283064,-123.106967],"user_lon":-123.1101611111,"user_lat":49.2892083333}
{"amenity":"fast_food","name":"Pizza Vancouver","tags":{"addr:housenumber":"547","addr:street":"Seymour Street"},"weight":4,"distance":722.3394897598,"loc":[49.2834954,-123.1149019],"user_lon":-123.1101611111,"user_lat":49.2892083333}
{"amenity":"fast_food","name":"Peqish","tags":{"opening_hours":"Mo-Fr 08:00-16:00","addr:housenumber":"552","addr:street":"Seymour Street"},"weight":4,"distance":722.9407788125,"loc":[49.2833711,-123.1145504],"user_lon":-123.1101611111,"user_lat":49.2892083333}
{"amenity":"cafe","name":"Finch's","tags":{"addr:housenumber":"353","addr:street":"West Pender Street"},"weight":3,"distance":723.2839631086,"loc":[49.2827779,-123.1116632],"user_lon":-123.1101611111,"user_lat":49.2892083333}
{"amenity":"restaurant","name":"Revel Room","tags":{"cuisine":"Southern","addr:housenumber":"238","addr:street":"Abbott Street","addr:city":"Vancouver"},"weight":7,"distance":723.4270632951,"loc":[49.2831514,-123.10652],"user_lon":-123.1101611111,"user_lat":49.2892083333}
{"amenity":"fast_food","name":"Fresh Bowl","tags":{"diet:vegetarian":"yes","drive_through":"no","cuisine":"noodle;rice","addr:street":"Cambie Street","diet:vegan":"yes","takeaway":"yes"},"weight":4,"distance":724.8377474449,"loc":[49.2827131,-123.1093153],"user_lon":-123.1101611111,"user_lat":49.2892083333}
{"amenity":"fast_food","name":"Urban Sushi","tags":{"addr:housenumber":"562","website":"http:\/\/www.urbansushi.com","phone":"+1-604-806-6218","opening_hours":"Mo-Fr 11:00-20:00; Sa 11:30-19:30","cuisine":"sushi","addr:street":"Granville Street","addr:postcode":"V6C 1W6","email":"info@urbansushi.com"},"weight":4,"distance":728.3769000395,"loc":[49.2838013,-123.1158299],"user_lon":-123.1101611111,"user_lat":49.2892083333}
{"amenity":"fast_food","name":"Quiznos","tags":{"brand:wikidata":"Q1936229","cuisine":"sandwich","takeaway":"yes","brand":"Quiznos","brand:wikipedia":"en:Quiznos"},"weight":4,"distance":728.8882015122,"loc":[49.2871644,-123.1197099],"user_lon":-123.1101611111,"user_lat":49.2892083333}
{"amenity":"restaurant","name":"La Taqueria","tags":{"cuisine":"mexican","addr:housenumber":"586","addr:street":"Hornby Street"},"weight":7,"distance":730.6002165632,"loc":[49.2850132,-123.1179138],"user_lon":-123.1101611111,"user_lat":49.2892083333}
{"amenity":"cafe","name":"JJ Bean","tags":{"opening_hours":"Mo-Fr 07:00-19:00; Sa,Su 08:00-18:00","addr:housenumber":"146","addr:street":"West Cordova Street"},"weight":3,"distance":732.1500329887,"loc":[49.2827821,-123.107962],"user_lon":-123.1101611111,"user_lat":49.2892083333}
{"amenity":"fast_food","name":"Meat & Bread","tags":{"addr:province":"BC","opening_hours":"Mo-Sa 11:00-17:00","addr:housenumber":"370","addr:street":"Cambie Street","addr:city":"Vancouver"},"weight":4,"distance":734.6501004121,"loc":[49.282623,-123.109344],"user_lon":-123.1101611111,"user_lat":49.2892083333}
{"amenity":"restaurant","name":"Showcase Restaurant & Bar","tags":{"addr:housenumber":"1122","addr:street":"West Hastings Street","addr:city":"Vancouver"},"weight":7,"distance":735.0588480415,"loc":[49.2879048,-123.1200971],"user_lon":-123.1101611111,"user_lat":49.2892083333}
{"amenity":"park","name":"CRAB Park at Portside","tags":{"addr:street":"E Waterfront Road"},"weight":8,"distance":737.4240666092,"loc":[49.284942,-123.102377],"user_lon":-123.1101611111,"user_lat":49.2892083333}
{"amenity":"restaurant","name":"Copper Chimney","tags":{"addr:street":"Hornby Street"},"weight":7,"distance":737.9231489652,"loc":[49.2851543,-123.1182162],"user_lon":-123.1101611111,"user_lat":49.2892083333}
{"amenity":"cafe","name":"Starbucks","tags":{"brand:wikidata":"Q37158","official_name":"Starbucks Coffee","brand:wikipedia":"en:Starbucks","cuisine":"coffee_shop","takeaway":"yes","brand":"Starbucks"},"weight":3,"distance":738.3543466362,"loc":[49.2875394,-123.1200147],"user_lon":-123.1101611111,"user_lat":49.2892083333}
{"amenity":"fast_food","name":"Fujiya take out","tags":{"name:fr":"Fujiya take out"},"weight":4,"distance":738.4206336485,"loc":[49.2870439,-123.1197864],"user_lon":-123.1101611111,"user_lat":49.2892083333}
{"amenity":"cafe","name":"Social Crust","tags":{"opening_hours":"Mo-Fr 08:00-14:00","addr:housenumber":"335","addr:street":"West Pender Street","phone":"+1-604-684-3352"},"weight":3,"distance":743.6246544416,"loc":[49.2825674,-123.1113699],"user_lon":-123.1101611111,"user_lat":49.2892083333}
{"amenity":"cafe","name":"Social Crust Cafe & Catering","tags":{"opening_hours":"Mo-Fr 08:00-14:00","addr:housenumber":"335","website":"https:\/\/www.socialcrustcafe.com","addr:street":"West Pender Street","addr:postcode":"V6B 1T3"},"weight":3,"distance":743.7764089323,"loc":[49.2825678,-123.1113926],"user_lon":-123.1101611111,"user_lat":49.2892083333}
{"amenity":"cafe","name":"Caffe Artigiano","tags":{"addr:housenumber":"574","addr:street":"Granville Street"},"weight":3,"distance":745.3523526436,"loc":[49.283684,-123.1159815],"user_lon":-123.1101611111,"user_lat":49.2892083333}
{"amenity":"restaurant","name":"Osteria Autostrada","tags":{"addr:housenumber":"350","website":"https:\/\/www.autostradahospitality.ca","phone":"+1-604-428-9694","opening_hours":"Tu-Sa 17:00-22:00","cuisine":"italian","addr:street":"West Pender Street","addr:city":"Vancouver"},"weight":7,"distance":746.6209897971,"loc":[49.282596,-123.1119502],"user_lon":-123.1101611111,"user_lat":49.2892083333}
{"amenity":"bar","name":"Gringo","tags":{},"weight":6,"distance":747.6877828643,"loc":[49.2832515,-123.105379],"user_lon":-123.1101611111,"user_lat":49.2892083333}
{"amenity":"cafe","name":"Starbucks","tags":{"brand:wikidata":"Q37158","official_name":"Starbucks Coffee","addr:housenumber":"891","brand:wikipedia":"en:Starbucks","cuisine":"coffee_shop","addr:street":"Dunsmuir Street","takeaway":"yes","brand":"Starbucks"},"weight":3,"distance":747.8776846682,"loc":[49.284888,-123.1180639],"user_lon":-123.1101611111,"user_lat":49.2892083333}
{"amenity":"cafe","name":"Bean Around The World","tags":{"addr:province":"BC","toilets:wheelchair":"yes","wheelchair":"limited","addr:housenumber":"175","website":"http:\/\/www.fuelledbycaffeine.com","internet_access":"wlan","opening_hours":"Mo 07:00-18:00; Tu-Fr 07:00-19:00; Sa 09:00-19:00; Su 09:00-18:00","cuisine":"coffee_shop","addr:street":"West Hastings Street","addr:postcode":"V6B 1H4","addr:city":"Vancouver"},"weight":3,"distance":748.7541211102,"loc":[49.2825011,-123.1092466],"user_lon":-123.1101611111,"user_lat":49.2892083333}
{"amenity":"cinema","name":"Goldcorp Centre for the Arts","tags":{"addr:housenumber":"149","alt_name":"Simon Fraser University Goldcorp Centre for the Arts","short_name":"SFU Goldcorp Centre for the Arts","addr:street":"West Hastings Street"},"weight":10,"distance":749.4011497064,"loc":[49.2826068,-123.108081],"user_lon":-123.1101611111,"user_lat":49.2892083333}
{"amenity":"restaurant","name":"Cactus Club Cafe","tags":{"addr:province":"BC","addr:housenumber":"588","website":"https:\/\/www.cactusclubcafe.com\/","phone":"+1-604-682-0933","cuisine":"Global","addr:street":"Burrard Street","addr:city":"Vancouver"},"weight":7,"distance":750.7427223122,"loc":[49.285504,-123.118815],"user_lon":-123.1101611111,"user_lat":49.2892083333}
{"amenity":"pub","name":"Blackbird","tags":{"addr:province":"BC","opening_hours":"Fr 11:30-02:00, Mo-Th 11:30-01:00, Sa 16:00-02:00","addr:housenumber":"905","addr:street":"Dunsmuir Street","addr:city":"Vancouver"},"weight":5,"distance":754.3451300577,"loc":[49.2851463,-123.1184912],"user_lon":-123.1101611111,"user_lat":49.2892083333}
{"amenity":"restaurant","name":"Rue 909 Sushi","tags":{"addr:province":"BC","addr:housenumber":"909","addr:street":"Dunsmuir Street","addr:city":"Vancouver"},"weight":7,"distance":756.1227246512,"loc":[49.2852511,-123.1186391],"user_lon":-123.1101611111,"user_lat":49.2892083333}
{"amenity":"pub","name":"Guilt & Co","tags":{"wheelchair":"no","addr:housenumber":"1","website":"http:\/\/www.guiltandcompany.com","opening_hours":"Mo-Su 19:00-02:00","addr:street":"Alexander Street","addr:postcode":"V6A 1B2"},"weight":5,"distance":756.91045021,"loc":[49.2836569,-123.1041219],"user_lon":-123.1101611111,"user_lat":49.2892083333}
{"amenity":"pub","name":"The Magnet","tags":{"opening_hours":"Mo-Th 16:00-23:30; Fr-Su 15:00-23:30","addr:housenumber":"309","website":"https:\/\/themagnet.ca\/","addr:street":"West Pender Street","email":"info@themagnet.ca"},"weight":5,"distance":759.7931198556,"loc":[49.2824055,-123.1111441],"user_lon":-123.1101611111,"user_lat":49.2892083333}
{"amenity":"restaurant","name":"Peckinpah","tags":{"cuisine":"barbecue","addr:housenumber":"2","addr:street":"Water Street"},"weight":7,"distance":764.5594980359,"loc":[49.2834375,-123.10443],"user_lon":-123.1101611111,"user_lat":49.2892083333}
{"amenity":"restaurant","name":"Local Public Eatery","tags":{"wheelchair":"no","website":"http:\/\/www.chillwinston.com"},"weight":7,"distance":765.9844159161,"loc":[49.2835819,-123.1040678],"user_lon":-123.1101611111,"user_lat":49.2892083333}
{"amenity":"restaurant","name":"Meet in Gastown","tags":{"diet:vegetarian":"only","cuisine":"burger","addr:housenumber":"12","addr:street":"Water Street","diet:vegan":"yes"},"weight":7,"distance":767.1903120041,"loc":[49.2832439,-123.104844],"user_lon":-123.1101611111,"user_lat":49.2892083333}
{"amenity":"cafe","name":"Caff\u00e8 Artigiano","tags":{"addr:housenumber":"1101","internet_access":"yes","phone":"+1-604-685-5333","opening_hours":"Mo-Fr 05:30-18:00; Sa-Su 06:30-17:00","cuisine":"coffee_shop","addr:street":"West Pender Street","addr:postcode":"V6E 2P4","addr:city":"Vancouver"},"weight":3,"distance":768.8863628049,"loc":[49.2876852,-123.1205021],"user_lon":-123.1101611111,"user_lat":49.2892083333}
{"amenity":"pub","name":"Six Acres","tags":{"addr:housenumber":"203","website":"http:\/\/sixacres.ca\/","phone":"+1-604-488-0110","opening_hours":"Su-Th 11:30-23:30; Fr-Sa 11:30-00:30","name:en":"Six Acres","addr:street":"Carrall Street Greenway","addr:postcode":"V6B 2J2","email":"info@sixacres.ca","addr:city":"Vancouver"},"weight":5,"distance":769.2507421998,"loc":[49.2833904,-123.1044226],"user_lon":-123.1101611111,"user_lat":49.2892083333}
{"amenity":"fast_food","name":"Subway","tags":{"brand:wikidata":"Q244457","addr:housenumber":"139","brand:wikipedia":"en:Subway (restaurant)","opening_hours":"Mo-Fr 07:00-23:00; Sa 08:00-23:00; Su 09:00-23:00","cuisine":"sandwich","addr:street":"West Hastings Street","takeaway":"yes","brand":"Subway"},"weight":4,"distance":769.4196884944,"loc":[49.2823756,-123.1084859],"user_lon":-123.1101611111,"user_lat":49.2892083333}
{"amenity":"fast_food","name":"halal arabic food stand","tags":{"addr:street":"Howe Street"},"weight":4,"distance":770.1743890727,"loc":[49.2842402,-123.1175601],"user_lon":-123.1101611111,"user_lat":49.2892083333}
{"amenity":"cafe","name":"Tim Hortons","tags":{"brand:wikidata":"Q175106","addr:housenumber":"607","internet_access":"wlan","brand:wikipedia":"en:Tim Hortons","internet_access:fee":"no","cuisine":"coffee_shop","addr:street":"Dunsmuir Street","takeaway":"yes","brand":"Tim Hortons","addr:city":"Vancouver"},"weight":3,"distance":771.1725056518,"loc":[49.2832205,-123.1155257],"user_lon":-123.1101611111,"user_lat":49.2892083333}
{"amenity":"restaurant","name":"Boneta","tags":{},"weight":7,"distance":771.5030463799,"loc":[49.2831498,-123.1049771],"user_lon":-123.1101611111,"user_lat":49.2892083333}
{"amenity":"cafe","name":"Apr\u00e8s-midi","tags":{"phone":"+1-604-568-7887","website":"http:\/\/www.apresmiditea.com"},"weight":3,"distance":772.4180654921,"loc":[49.2832144,-123.1047785],"user_lon":-123.1101611111,"user_lat":49.2892083333}
{"amenity":"fast_food","name":"A&W","tags":{"opening_hours":"24\/7","cuisine":"burger","internet_access":"wlan","addr:city":"Vancouver"},"weight":4,"distance":773.9115731856,"loc":[49.2831516,-123.1154178],"user_lon":-123.1101611111,"user_lat":49.2892083333}
{"amenity":"pub","name":"The Portside Pub","tags":{"addr:housenumber":"7","website":"https:\/\/theportsidepub.com\/","phone":"+1-604-559-6333","opening_hours":"Mo-Th 17:00-02:00; Fr 16:30-03:00; Sa 17:00-03:00; Su 20:00-02:00","addr:street":"Alexander Street","addr:postcode":"V6A 1E9"},"weight":5,"distance":775.6304168086,"loc":[49.2835624,-123.1038811],"user_lon":-123.1101611111,"user_lat":49.2892083333}
{"amenity":"fast_food","name":"Carl's Jr.","tags":{"brand:wikidata":"Q1043486","brand:wikipedia":"en:Carl's Jr.","opening_hours":"Mo-Sa 10:30-21:00; Su 11:30-20:00","cuisine":"burger","takeaway":"yes","brand":"Carl's Jr."},"weight":4,"distance":776.0999967635,"loc":[49.2843286,-123.1178118],"user_lon":-123.1101611111,"user_lat":49.2892083333}
{"amenity":"park","name":"Victory Square","tags":{"addr:street":"W Hastings Street"},"weight":8,"distance":777.2922777577,"loc":[49.282218,-123.110133],"user_lon":-123.1101611111,"user_lat":49.2892083333}
{"amenity":"cafe","name":"Caffe Express","tags":{"addr:housenumber":"888","addr:street":"Dunsmuir Street"},"weight":3,"distance":777.3210261204,"loc":[49.2845541,-123.1181578],"user_lon":-123.1101611111,"user_lat":49.2892083333}
{"amenity":"fast_food","name":"Donair Dude","tags":{"website":"https:\/\/www.donairdude.com\/","internet_access":"wlan","cuisine":"kebab","addr:postcode":"V6B 1G8","takeaway":"yes","addr:city":"Vancouver","addr:housenumber":"164","phone":"+1-604-564-4456","drive_through":"no","opening_hours":"Mo-Th 10:30-00:00; Fr 10:30-02:00; Sa 11:00-02:00; Su 11:00-23:00","addr:street":"West Hastings Street","email":"gastown@donairdude.com"},"weight":4,"distance":778.3136466025,"loc":[49.2822367,-123.1092038],"user_lon":-123.1101611111,"user_lat":49.2892083333}
{"amenity":"restaurant","name":"Le Petit Cr\u00eape","tags":{},"weight":7,"distance":778.6630205114,"loc":[49.2877451,-123.1206603],"user_lon":-123.1101611111,"user_lat":49.2892083333}
{"amenity":"bar","name":"Metropole","tags":{"addr:housenumber":"320","addr:street":"Abbott Street"},"weight":6,"distance":783.4880933168,"loc":[49.2825107,-123.1068062],"user_lon":-123.1101611111,"user_lat":49.2892083333}
{"amenity":"restaurant","name":"Tuc Craft Kitchen","tags":{"cuisine":"breakfast","addr:housenumber":"60","addr:street":"West Cordova Street","addr:postcode":"V6B 1C9"},"weight":7,"distance":784.0911669621,"loc":[49.2826779,-123.1060827],"user_lon":-123.1101611111,"user_lat":49.2892083333}
{"amenity":"bar","name":"Railway Club","tags":{"addr:housenumber":"579","website":"http:\/\/www.therailwayclub.com","addr:street":"Dunsmuir Street","disused":"yes","addr:city":"Vancouver"},"weight":6,"distance":784.3773681193,"loc":[49.2829389,-123.115118],"user_lon":-123.1101611111,"user_lat":49.2892083333}
{"amenity":"pub","name":"The Hastings Warehouse","tags":{"addr:housenumber":"156","addr:street":"West Hastings Street","source":"survey","addr:city":"Vancouver"},"weight":5,"distance":784.8461040881,"loc":[49.2821875,-123.1090478],"user_lon":-123.1101611111,"user_lat":49.2892083333}
{"amenity":"fast_food","name":"The Bagel Stop","tags":{"opening_hours":"Mo-Fr 09:00-17:00","addr:housenumber":"313-595","name:en":"The Bagel Stop","level":"-1"},"weight":4,"distance":786.178417772,"loc":[49.2860715,-123.1198755],"user_lon":-123.1101611111,"user_lat":49.2892083333}
{"amenity":"fast_food","name":"Vera's Burger Shack","tags":{"addr:housenumber":"213","website":"http:\/\/www.verasburgershack.com","phone":"+1-604-568-5850","opening_hours":"Mo-Th,Su 11:00-21:00; Fr,Sa 11:00-22:00","addr:street":"Carrall Street","addr:postcode":"V6B 2J2"},"weight":4,"distance":787.2209863133,"loc":[49.2831781,-123.1044747],"user_lon":-123.1101611111,"user_lat":49.2892083333}
{"amenity":"cafe","name":"Cafe Artigiano","tags":{"addr:province":"BC","addr:housenumber":"763","website":"https:\/\/caffeartigiano.com\/","phone":"+1-604-694-7737","addr:street":"Hornby Street","addr:city":"Vancouver"},"weight":3,"distance":790.1923595083,"loc":[49.2848628,-123.1187816],"user_lon":-123.1101611111,"user_lat":49.2892083333}
{"amenity":"restaurant","name":"The Keg Steakhouse + Bar - Dunsmuir Street","tags":{"addr:housenumber":"688","website":"https:\/\/www.kegsteakhouse.com\/locations\/dunsmuir-keg\/","phone":"+1-604-685-7502","opening_hours":"Mo-Th 11:30-00:00; Fr 11:30-01:00; Sa 16:00-01:00; Su 16:00-23:00","cuisine":"regional","addr:street":"Dunsmuir Street","addr:postcode":"V6B 1N3","addr:city":"Vancouver"},"weight":7,"distance":790.9132064923,"loc":[49.2833798,-123.1164113],"user_lon":-123.1101611111,"user_lat":49.2892083333}
{"amenity":"restaurant","name":"St. Regis Bar & Grill","tags":{"addr:housenumber":"608","website":"https:\/\/stregisbarandgrill.com\/","addr:street":"Dunsmuir Street","addr:city":"Vancouver"},"weight":7,"distance":793.1607688857,"loc":[49.283152,-123.1159385],"user_lon":-123.1101611111,"user_lat":49.2892083333}
{"amenity":"fast_food","name":"Dae Ji","tags":{"opening_hours":"Mo-Fr 11:00-21:00; Sa 12:00-21:00","addr:housenumber":"519","addr:street":"Dunsmuir Street","addr:city":"Vancouver"},"weight":4,"distance":795.7968833748,"loc":[49.282708,-123.1147514],"user_lon":-123.1101611111,"user_lat":49.2892083333}
{"amenity":"cafe","name":"Starbucks","tags":{"brand:wikidata":"Q37158","official_name":"Starbucks Coffee","brand:wikipedia":"en:Starbucks","opening_hours":"Mo-Fr 05:00-20:00; Sa 07:00-18:30; Su 07:00-17:30","cuisine":"coffee_shop","takeaway":"yes","brand":"Starbucks"},"weight":3,"distance":798.1336020743,"loc":[49.2829884,-123.1156531],"user_lon":-123.1101611111,"user_lat":49.2892083333}
{"amenity":"restaurant","name":"The Greek Gastown","tags":{"addr:province":"BC","addr:housenumber":"221","addr:street":"Carrall Street","addr:city":"Vancouver"},"weight":7,"distance":798.3407941667,"loc":[49.2830557,-123.1044882],"user_lon":-123.1101611111,"user_lat":49.2892083333}
{"amenity":"nightclub","name":"The Bourbon","tags":{"addr:housenumber":"50","addr:street":"West Cordova Street","addr:city":"Vancouver"},"weight":2,"distance":799.0998712701,"loc":[49.2826091,-123.1057991],"user_lon":-123.1101611111,"user_lat":49.2892083333}
{"amenity":"fast_food","name":"Sushi Home","tags":{"cuisine":"sushi","addr:housenumber":"509","addr:street":"Dunsmuir Street","addr:city":"Vancouver"},"weight":4,"distance":801.8007490047,"loc":[49.2826109,-123.1146226],"user_lon":-123.1101611111,"user_lat":49.2892083333}
{"amenity":"cafe","name":"Xing Fu Tang","tags":{"wheelchair":"yes","website":"https:\/\/www.xingfutang.ca","air_conditioning":"yes","internet_access":"wlan","level":"-1","internet_access:fee":"no","cuisine":"bubble_tea","addr:postcode":"V6B 1N3","takeaway":"yes","addr:unit":"80","addr:city":"Vancouver","capacity":"30","addr:housenumber":"678","smoking":"no","opening_hours":"Mo-Fr 09:00-21:00; Sa-Su 11:00-21:00","outdoor_seating":"no","addr:street":"Dunsmuir Street","payment:debit_cards":"yes","email":"info@xingfutang.ca","start_date":"September 23 2019"},"weight":3,"distance":802.6340309931,"loc":[49.2832473,-123.1164016],"user_lon":-123.1101611111,"user_lat":49.2892083333}
{"amenity":"fast_food","name":"Big Bowl Rice","tags":{"addr:housenumber":"505","addr:street":"Dunsmuir Street","addr:city":"Vancouver"},"weight":4,"distance":804.3489483735,"loc":[49.2825668,-123.1145555],"user_lon":-123.1101611111,"user_lat":49.2892083333}
{"amenity":"restaurant","name":"Peaceful Restaurant","tags":{"addr:housenumber":"602","website":"http:\/\/www.peacefulrestaurant.com","phone":"+1-604-313-1333","cuisine":"chinese","addr:street":"Seymour Street","addr:postcode":"V6B 3K4","addr:city":"Vancouver"},"weight":7,"distance":804.989048377,"loc":[49.282833,-123.1154195],"user_lon":-123.1101611111,"user_lat":49.2892083333}
{"amenity":"restaurant","name":"Ramen Gojiro","tags":{"opening_hours":"Mo-Su 11:00-22:00","cuisine":"ramen","addr:housenumber":"501","addr:street":"Dunsmuir Street","addr:city":"Vancouver"},"weight":7,"distance":805.949722704,"loc":[49.2825244,-123.1144591],"user_lon":-123.1101611111,"user_lat":49.2892083333}
{"amenity":"bar","name":"The Diamond","tags":{"addr:housenumber":"6","website":"http:\/\/di6mond.com","opening_hours":"Mo-Th 17:30-01:00; Fr-Sa 17:30-02:00; Su 17:30-00:00","addr:street":"Powell Street","addr:postcode":"V6B 1G7","email":"info@di6mond.com","addr:city":"Vancouver"},"weight":6,"distance":806.3817263999,"loc":[49.2831604,-123.1040262],"user_lon":-123.1101611111,"user_lat":49.2892083333}
{"amenity":"bar","name":"TAP shack Eatery","tags":{"addr:housenumber":"1199","addr:street":"West Cordova Street"},"weight":6,"distance":807.4773122528,"loc":[49.2897968,-123.1212582],"user_lon":-123.1101611111,"user_lat":49.2892083333}
{"amenity":"restaurant","name":"Heritage Asian Eatery","tags":{"cuisine":"asian"},"weight":7,"distance":810.2486974874,"loc":[49.287548,-123.1210389],"user_lon":-123.1101611111,"user_lat":49.2892083333}
{"amenity":"restaurant","name":"Catch 122","tags":{"addr:housenumber":"122","addr:street":"West Hastings Street"},"weight":7,"distance":815.1940338494,"loc":[49.2820098,-123.1080325],"user_lon":-123.1101611111,"user_lat":49.2892083333}
{"amenity":"fast_food","name":"Pok\u00e9rrito","tags":{"cuisine":"poke","addr:housenumber":"558","addr:street":"Dunsmuir Street","addr:postcode":"V6B 1Y1","addr:city":"Vancouver"},"weight":4,"distance":816.3721665272,"loc":[49.2826167,-123.1151176],"user_lon":-123.1101611111,"user_lat":49.2892083333}
{"amenity":"restaurant","name":"Wildebeest","tags":{"addr:housenumber":"120","addr:street":"West Hastings Street"},"weight":7,"distance":817.812285263,"loc":[49.2819933,-123.1079737],"user_lon":-123.1101611111,"user_lat":49.2892083333}
{"amenity":"restaurant","name":"Sitar","tags":{"cuisine":"indian","addr:housenumber":"8","addr:street":"Powell Street","phone":"+1-604-687-0049"},"weight":7,"distance":818.1495309718,"loc":[49.283151,-123.1037577],"user_lon":-123.1101611111,"user_lat":49.2892083333}
{"amenity":"restaurant","name":"Gotham","tags":{"cuisine":"steak_house","addr:city":"Vancouver"},"weight":7,"distance":819.1813939528,"loc":[49.2828492,-123.1158635],"user_lon":-123.1101611111,"user_lat":49.2892083333}
{"amenity":"restaurant","name":"Tacofino","tags":{"addr:housenumber":"15","payment:credit_cards":"yes","smoking":"no","cuisine":"taco;mexican","outdoor_seating":"yes","addr:street":"West Cordova Street","payment:debit_cards":"yes","takeaway":"yes","addr:city":"Vancouver"},"weight":7,"distance":819.8693721231,"loc":[49.2827166,-123.1048014],"user_lon":-123.1101611111,"user_lat":49.2892083333}
{"amenity":"cafe","name":"Tim Hortons","tags":{"brand:wikidata":"Q175106","wheelchair":"yes","internet_access":"yes","level":"-1","brand:wikipedia":"en:Tim Hortons","internet_access:fee":"no","cuisine":"coffee_shop","addr:postcode":"V6B 1N3","takeaway":"yes","addr:city":"Vancouver","addr:housenumber":"678","phone":"+16046940865","smoking":"no","opening_hours":"Mo-Th 06:00-20:30; Fr 06:30-20:30; Sa-Su 08:00-20:00","outdoor_seating":"no","addr:street":"Dunsmuir Street","brand":"Tim Hortons"},"weight":3,"distance":821.4962585729,"loc":[49.2830656,-123.1164538],"user_lon":-123.1101611111,"user_lat":49.2892083333}
{"amenity":"restaurant","name":"The Sardine Can","tags":{"addr:housenumber":"26","addr:street":"Powell Street","addr:city":"Vancouver"},"weight":7,"distance":826.4405238981,"loc":[49.2831638,-123.1035309],"user_lon":-123.1101611111,"user_lat":49.2892083333}
{"amenity":"restaurant","name":"SMAK","tags":{"addr:housenumber":"1139","addr:street":"West Pender Street","addr:city":"Vancouver"},"weight":7,"distance":828.1566311143,"loc":[49.2879677,-123.1214202],"user_lon":-123.1101611111,"user_lat":49.2892083333}
{"amenity":"fast_food","name":"Noodle Box","tags":{"diet:vegetarian":"yes","addr:housenumber":"108","website":"http:\/\/www.noodlebox.ca","phone":"+1-604-559-1775","opening_hours":"Mo-Fr 11:30-21:00; Sa-Su 12:00-20:00","cuisine":"noodles;asian","addr:street":"West Hastings Street","addr:postcode":"V6B 0G9","takeaway":"yes","email":"gastown@noodlebox.net"},"weight":4,"distance":828.2767097443,"loc":[49.2819445,-123.1076316],"user_lon":-123.1101611111,"user_lat":49.2892083333}
{"amenity":"restaurant","name":"The Birds & The Beets","tags":{"wheelchair":"no","addr:housenumber":"54","addr:street":"Alexander Street"},"weight":7,"distance":828.6014279999,"loc":[49.2835451,-123.102736],"user_lon":-123.1101611111,"user_lat":49.2892083333}
{"amenity":"pub","name":"Irish Heather","tags":{"cuisine":"irish","website":"http:\/\/www.irishheather.com","phone":"+1-604-688-9779","addr:postcode":"V6B 2J1"},"weight":5,"distance":828.9888121972,"loc":[49.2828919,-123.1040897],"user_lon":-123.1101611111,"user_lat":49.2892083333}
{"amenity":"cafe","name":"Java Cat","tags":{"opening_hours":"Mo-Fr 07:00-16:00","addr:housenumber":"515","addr:street":"Hamilton Street"},"weight":3,"distance":833.7765418744,"loc":[49.2817816,-123.1117459],"user_lon":-123.1101611111,"user_lat":49.2892083333}
{"amenity":"fast_food","name":"Triple O's","tags":{"cuisine":"burger","level":"-1","drive_through":"no"},"weight":4,"distance":834.7580937724,"loc":[49.2866181,-123.1209638],"user_lon":-123.1101611111,"user_lat":49.2892083333}
{"amenity":"cafe","name":"Nectar","tags":{"addr:housenumber":"102","addr:street":"West Hastings Street"},"weight":3,"distance":834.9167305448,"loc":[49.2819026,-123.1075035],"user_lon":-123.1101611111,"user_lat":49.2892083333}
{"amenity":"cafe","name":"JJ Bean","tags":{"addr:housenumber":"425","smoking":"no","opening_hours":"Mo-Fr 06:00-18:00","cuisine":"coffee","addr:street":"Dunsmuir Street","addr:city":"Vancouver"},"weight":3,"distance":834.9272616496,"loc":[49.28207,-123.1137317],"user_lon":-123.1101611111,"user_lat":49.2892083333}
{"amenity":"pub","name":"Blarney Stone","tags":{},"weight":5,"distance":835.9387317587,"loc":[49.2827946,-123.1041486],"user_lon":-123.1101611111,"user_lat":49.2892083333}
{"amenity":"restaurant","name":"Bauhaus","tags":{"addr:housenumber":"1","addr:street":"West Cordova Street","addr:city":"Vancouver"},"weight":7,"distance":836.1586784233,"loc":[49.2826468,-123.1045297],"user_lon":-123.1101611111,"user_lat":49.2892083333}
{"amenity":"cafe","name":"Prado","tags":{"opening_hours":"Mo-Fr 07:00-20:00; Sa 08:00-20:00; Su 08:00-19:00","addr:housenumber":"100","addr:street":"West Hastings Street"},"weight":3,"distance":836.7119171096,"loc":[49.2818951,-123.1074453],"user_lon":-123.1101611111,"user_lat":49.2892083333}
{"amenity":"park","name":"Cathedral Square","tags":{"addr:street":"Richards Street"},"weight":8,"distance":836.7821362764,"loc":[49.282084,-123.113877],"user_lon":-123.1101611111,"user_lat":49.2892083333}
{"amenity":"fast_food","name":"Opa! Of Greece","tags":{"cuisine":"greek","drive_through":"no","addr:city":"Vancouver"},"weight":4,"distance":839.4679634573,"loc":[49.2833353,-123.1174336],"user_lon":-123.1101611111,"user_lat":49.2892083333}
{"amenity":"cafe","name":"Field & Social","tags":{"opening_hours":"Mo-Fr 11:00-15:00","addr:housenumber":"415","website":"https:\/\/www.fieldandsocial.com\/","addr:street":"Dunsmuir Street"},"weight":3,"distance":840.3273944995,"loc":[49.2819959,-123.1136208],"user_lon":-123.1101611111,"user_lat":49.2892083333}
{"amenity":"bar","name":"Shebeen Whiskey House","tags":{"addr:street":"Carrall Street"},"weight":6,"distance":841.7742818783,"loc":[49.2828822,-123.1037866],"user_lon":-123.1101611111,"user_lat":49.2892083333}
{"amenity":"fast_food","name":"Mr Shawarma","tags":{},"weight":4,"distance":845.4035976226,"loc":[49.2831011,-123.1171034],"user_lon":-123.1101611111,"user_lat":49.2892083333}
{"amenity":"fast_food","name":"Mr Shawarma","tags":{"addr:province":"BC","addr:street":"Melville Street","addr:city":"Vancouver"},"weight":4,"distance":845.7551338964,"loc":[49.2852994,-123.1201643],"user_lon":-123.1101611111,"user_lat":49.2892083333}
{"amenity":"cafe","name":"Vegan Cave","tags":{"addr:housenumber":"415","website":"http:\/\/vegancave.ca","diet:gluten_free":"yes","cuisine":"pizza","outdoor_seating":"no","addr:street":"Abbott Street","diet:vegan":"only","operator":"Caveman Cafe Inc.","addr:city":"Vancouver"},"weight":3,"distance":846.4349924124,"loc":[49.2818025,-123.1074624],"user_lon":-123.1101611111,"user_lat":49.2892083333}
{"amenity":"restaurant","name":"White Spot","tags":{"brand:wikidata":"Q7995414","wheelchair":"yes","brand:wikipedia":"en:White Spot","cuisine":"burger","addr:postcode":"V6B 1X4","addr:city":"Vancouver","capacity":"249","diet:vegetarian":"yes","addr:housenumber":"405","smoking":"no","opening_hours":"Mo-Th 06:30-23:00; Fr 06:30-00:00; Sa 08:00-00:00; Su 08:00-23:00","addr:street":"Dunsmuir Street","brand":"White Spot"},"weight":7,"distance":846.8280597473,"loc":[49.2819109,-123.1135011],"user_lon":-123.1101611111,"user_lat":49.2892083333}
{"amenity":"restaurant","name":"Rodney's Oyster House","tags":{},"weight":7,"distance":849.4089131845,"loc":[49.2831459,-123.103036],"user_lon":-123.1101611111,"user_lat":49.2892083333}
{"amenity":"cafe","name":"Tim Hortons","tags":{"brand:wikidata":"Q175106","brand:wikipedia":"en:Tim Hortons","cuisine":"coffee_shop","outdoor_seating":"no","takeaway":"only","brand":"Tim Hortons"},"weight":3,"distance":850.3528679248,"loc":[49.2875882,-123.1216196],"user_lon":-123.1101611111,"user_lat":49.2892083333}
{"amenity":"restaurant","name":"Moltaqa","tags":{"cuisine":"moroccan","addr:housenumber":"51","website":"http:\/\/www.moltaqarestaurant.com"},"weight":7,"distance":850.7523691341,"loc":[49.2819798,-123.1063174],"user_lon":-123.1101611111,"user_lat":49.2892083333}
{"amenity":"restaurant","name":"Incendio","tags":{"addr:housenumber":"103","addr:street":"Columbia Street"},"weight":7,"distance":853.119725269,"loc":[49.2834563,-123.1023773],"user_lon":-123.1101611111,"user_lat":49.2892083333}
{"amenity":"bar","name":"Prohibition","tags":{},"weight":6,"distance":857.4892792447,"loc":[49.2837396,-123.1184966],"user_lon":-123.1101611111,"user_lat":49.2892083333}
{"amenity":"restaurant","name":"Indian Delicacy","tags":{"cuisine":"indian","outdoor_seating":"no"},"weight":7,"distance":859.8722858952,"loc":[49.2873634,-123.1216746],"user_lon":-123.1101611111,"user_lat":49.2892083333}
{"amenity":"park","name":"Harbour Green Park","tags":{"addr:street":"W Cordova Street"},"weight":8,"distance":861.1279880358,"loc":[49.290263,-123.121924],"user_lon":-123.1101611111,"user_lat":49.2892083333}
{"amenity":"pub","name":"Grand Union Hotel","tags":{"addr:street":"West Hastings Street"},"weight":5,"distance":861.473551761,"loc":[49.2817874,-123.1067495],"user_lon":-123.1101611111,"user_lat":49.2892083333}
{"amenity":"bar","name":"Grain Tasting Bar","tags":{"addr:province":"BC","addr:housenumber":"655","website":"https:\/\/vancouver.hyatt.com\/","phone":"+1-604-639-4771","smoking":"no","addr:street":"Burrard Street","addr:postcode":"V6C 2R7","addr:city":"Vancouver"},"weight":6,"distance":862.4588330957,"loc":[49.2852025,-123.1203437],"user_lon":-123.1101611111,"user_lat":49.2892083333}
{"amenity":"fast_food","name":"Tacomio","tags":{"addr:housenumber":"435","website":"http:\/\/www.tacomio.ca","opening_hours":"Mo-Su 11:00-21:00","cuisine":"mexican","addr:street":"Abbott Street","takeaway":"yes"},"weight":4,"distance":863.0365685745,"loc":[49.2816397,-123.1075252],"user_lon":-123.1101611111,"user_lat":49.2892083333}
{"amenity":"park","name":"Art Phillips Park","tags":{"addr:street":"Burrard Street"},"weight":8,"distance":864.0077176784,"loc":[49.285911,-123.120948],"user_lon":-123.1101611111,"user_lat":49.2892083333}
{"amenity":"restaurant","name":"Save On Meats","tags":{"opening_hours":"Su-Th 11:00-19:00; Fr-Sa 11:00-23:00","website":"http:\/\/saveonmeats.ca\/","phone":"+1-604-569-3568","email":"community@saveonmeats.ca"},"weight":7,"distance":864.0382211261,"loc":[49.2819214,-123.1060244],"user_lon":-123.1101611111,"user_lat":49.2892083333}
{"amenity":"restaurant","name":"Symphonie","tags":{"cuisine":"breakfast;filipino"},"weight":7,"distance":868.214318353,"loc":[49.2876652,-123.1218959],"user_lon":-123.1101611111,"user_lat":49.2892083333}
{"amenity":"restaurant","name":"JOS","tags":{"cuisine":"pizza","addr:housenumber":"1190","addr:street":"West Cordova Street"},"weight":7,"distance":868.9315366807,"loc":[49.2890203,-123.1221386],"user_lon":-123.1101611111,"user_lat":49.2892083333}
{"amenity":"tourism","name":"Or","tags":{"addr:housenumber":"555","addr:street":"Hamilton Street","name":"Or","tourism":"gallery","wikidata":"Q7099175"},"weight":11,"distance":870.2546794301,"loc":[49.281491,-123.1121571],"user_lon":-123.1101611111,"user_lat":49.2892083333}
{"amenity":"cafe","name":"Lost + Found Cafe","tags":{"addr:housenumber":"33","website":"https:\/\/www.lostandfoundcafe.com\/","payment:bitcoin":"yes","internet_access":"yes","phone":"+1-604-559-7444","opening_hours":"Mo-Fr 08:00-18:00; Sa,Su 09:00-17:00","addr:street":"West Hastings Street","addr:postcode":"V6B 1G4","addr:city":"Vancouver"},"weight":3,"distance":874.9328038516,"loc":[49.2819083,-123.1056595],"user_lon":-123.1101611111,"user_lat":49.2892083333}
{"amenity":"cafe","name":"Nelson the Seagull","tags":{"addr:housenumber":"315","website":"http:\/\/www.nelsontheseagull.com","phone":"+1-604-681-5776","opening_hours":"Mo-Fr 08:00-17:00; Sa,Su 09:00-17:00","addr:street":"Carrall Street","addr:postcode":"V6A 0A7"},"weight":3,"distance":884.3336815516,"loc":[49.2821626,-123.1045058],"user_lon":-123.1101611111,"user_lat":49.2892083333}
{"amenity":"restaurant","name":"Victoria Chinese Restaurant","tags":{"addr:housenumber":"1088","phone":"+1-604-669-8383","opening_hours":"Mo-Su 10:00-15:00,17:30-22:00","cuisine":"chinese","addr:street":"Melville Street","source":"survey","addr:unit":"260","addr:city":"Vancouver"},"weight":7,"distance":885.2065141785,"loc":[49.2856601,-123.1210867],"user_lon":-123.1101611111,"user_lat":49.2892083333}
{"amenity":"cafe","name":"Starbucks","tags":{"brand:wikidata":"Q37158","addr:province":"BC","official_name":"Starbucks Coffee","brand:wikipedia":"en:Starbucks","cuisine":"coffee_shop","addr:street":"West Georgia Street","takeaway":"yes","brand":"Starbucks","addr:city":"Vancouver"},"weight":3,"distance":885.5366387541,"loc":[49.2850423,-123.1205667],"user_lon":-123.1101611111,"user_lat":49.2892083333}
{"amenity":"fast_food","name":"Smokehouse Sandwich Co","tags":{"opening_hours":"Mo-Fr 07:00-15:00","cuisine":"sandwich","website":"http:\/\/www.smokehousesandwich.ca","phone":"+1-604-620-0766"},"weight":4,"distance":886.7747801796,"loc":[49.2842686,-123.1197597],"user_lon":-123.1101611111,"user_lat":49.2892083333}
{"amenity":"restaurant","name":"Prestons Restaurant + Lounge","tags":{"addr:housenumber":"1177","addr:street":"West Pender Street","addr:city":"Vancouver"},"weight":7,"distance":888.1610262141,"loc":[49.28822,-123.122313],"user_lon":-123.1101611111,"user_lat":49.2892083333}
{"amenity":"cafe","name":"East Van Roasters","tags":{"addr:housenumber":"319","website":"http:\/\/eastvanroasters.com","name:de":"East Van Roasters - Artisan Chocolate Coffee","phone":"+1-604-629-7562","opening_hours":"Tu-Sa 10:00-17:00","name:fr":"East Van Roasters - Artisan Chocolate Coffee","cuisine":"cake;coffee_shop","name:en":"East Van Roasters - Artisan Chocolate Coffee","addr:postcode":"V6B 2J4"},"weight":3,"distance":890.1538733421,"loc":[49.282101,-123.1045134],"user_lon":-123.1101611111,"user_lat":49.2892083333}
{"amenity":"restaurant","name":"Mirai Sushi","tags":{"addr:housenumber":"117","internet_access":"wlan","phone":"+1-778-379-2588","opening_hours":"Mo-Fr 11:30-00:00; Sa 12:00-00:00","cuisine":"japanese;sushi","outdoor_seating":"no","addr:street":"West Pender Street","addr:postcode":"V6B 1S5","takeaway":"yes","email":"miraisushi117@gmail.com"},"weight":7,"distance":892.9845905057,"loc":[49.2813057,-123.1079703],"user_lon":-123.1101611111,"user_lat":49.2892083333}
{"amenity":"pub","name":"The Pint","tags":{"opening_hours":"Mo-Su 11:00-02:00","addr:housenumber":"455","website":"http:\/\/www.thepint.ca\/vancouver\/","addr:street":"Abbott Street","addr:city":"Vancouver"},"weight":5,"distance":899.9814837495,"loc":[49.2812723,-123.1077237],"user_lon":-123.1101611111,"user_lat":49.2892083333}
{"amenity":"restaurant","name":"Panago Pizza","tags":{"cuisine":"pizza","takeaway":"only","capacity":"0"},"weight":7,"distance":907.1447236851,"loc":[49.288332,-123.1225965],"user_lon":-123.1101611111,"user_lat":49.2892083333}
{"amenity":"fast_food","name":"Bay Sushi Cafe","tags":{"opening_hours":"Mo-Su 10:00-19:30","addr:housenumber":"678","addr:street":"Seymour Street"},"weight":4,"distance":910.1853747698,"loc":[49.2821283,-123.1164589],"user_lon":-123.1101611111,"user_lat":49.2892083333}
{"amenity":"pub","name":"Alibi Room","tags":{"opening_hours":"Mo-Th 17:00-23:30; Fr 17:00-00:30; Sa 10:00-14:45,17:00-00:30; Su 10:00-14:45,17:00-23:30","addr:housenumber":"157","website":"http:\/\/www.alibi.ca\/","addr:street":"Alexander Street"},"weight":5,"distance":911.5033557553,"loc":[49.2842068,-123.1002041],"user_lon":-123.1101611111,"user_lat":49.2892083333}
{"amenity":"cafe","name":"My Honey's Buns","tags":{},"weight":3,"distance":913.9552100223,"loc":[49.2840486,-123.11997],"user_lon":-123.1101611111,"user_lat":49.2892083333}
{"amenity":"fast_food","name":"Kung Fu Noodle","tags":{"addr:housenumber":"682","addr:street":"Seymour Street"},"weight":4,"distance":914.9779823003,"loc":[49.2820949,-123.1165023],"user_lon":-123.1101611111,"user_lat":49.2892083333}
{"amenity":"cafe","name":"Tim Hortons","tags":{"brand:wikidata":"Q175106","addr:province":"BC","brand:wikipedia":"en:Tim Hortons","opening_hours":"24\/7","cuisine":"coffee_shop","takeaway":"yes","brand":"Tim Hortons","addr:city":"Vancouver"},"weight":3,"distance":921.1567015547,"loc":[49.2848332,-123.1209459],"user_lon":-123.1101611111,"user_lat":49.2892083333}
{"amenity":"cafe","name":"Cafe Bel","tags":{"opening_hours":"Mo-Fr 06:30-17:00; Sa-Su 07:00-17:00","wheelchair":"yes","name:en":"Cafe Bel"},"weight":3,"distance":921.6208095387,"loc":[49.2833178,-123.1191002],"user_lon":-123.1101611111,"user_lat":49.2892083333}
{"amenity":"restaurant","name":"Hawksworth Restaurant","tags":{"wheelchair":"yes","addr:housenumber":"801","phone":"+1-604-673-7000","wikipedia:en":"Hawksworth Restaurant","addr:street":"West Georgia Street","wikidata":"Q5685303"},"weight":7,"distance":922.2405026091,"loc":[49.2834916,-123.1193734],"user_lon":-123.1101611111,"user_lat":49.2892083333}
{"amenity":"restaurant","name":"Pidgin","tags":{"addr:housenumber":"350","addr:street":"Carrall Street","addr:city":"Vancouver"},"weight":7,"distance":926.4153093513,"loc":[49.2818502,-123.1041702],"user_lon":-123.1101611111,"user_lat":49.2892083333}
{"amenity":"park","name":"Pioneer Place (Pigeon Park)","tags":{"addr:street":"Carrall Street"},"weight":8,"distance":927.6977227904,"loc":[49.281699,-123.104588],"user_lon":-123.1101611111,"user_lat":49.2892083333}
{"amenity":"cafe","name":"Tim Hortons","tags":{"brand:wikidata":"Q175106","addr:housenumber":"108","brand:wikipedia":"en:Tim Hortons","opening_hours":"24\/7","cuisine":"coffee_shop","addr:street":"West Pender Street","takeaway":"yes","brand":"Tim Hortons","addr:city":"Vancouver"},"weight":3,"distance":931.4704508128,"loc":[49.2809701,-123.107834],"user_lon":-123.1101611111,"user_lat":49.2892083333}
{"amenity":"fast_food","name":"McDonald's","tags":{"brand:wikidata":"Q38076","addr:province":"BC","website":"http:\/\/www.mcdonalds.ca\/","internet_access":"wlan","brand:wikipedia":"en:McDonald's","opening_hours":"24\/7","cuisine":"burger","takeaway":"yes","brand":"McDonald's","addr:city":"Vancouver"},"weight":4,"distance":932.2715512481,"loc":[49.2847649,-123.1210612],"user_lon":-123.1101611111,"user_lat":49.2892083333}
{"amenity":"pub","name":"Darby's","tags":{"addr:housenumber":"18","website":"https:\/\/www.darbysgastown.pub\/","addr:street":"West Hastings Street","addr:city":"Vancouver"},"weight":5,"distance":934.3977038949,"loc":[49.2814612,-123.1051707],"user_lon":-123.1101611111,"user_lat":49.2892083333}
{"amenity":"park","name":"Wendy Poole Park","tags":{"addr:street":"Alexander Street"},"weight":8,"distance":936.9082765434,"loc":[49.284296,-123.099666],"user_lon":-123.1101611111,"user_lat":49.2892083333}
{"amenity":"restaurant","name":"Tsuki Sushi Bar","tags":{"addr:housenumber":"509","website":"http:\/\/www.tsukisushibar.ca","phone":"+1-604-558-3805","opening_hours":"Mo-Fr 11:30-14:30,17:00-21:30","cuisine":"sushi","addr:street":"Abbott Street","addr:postcode":"V6B 0J9"},"weight":7,"distance":939.4510774989,"loc":[49.2808958,-123.1078452],"user_lon":-123.1101611111,"user_lat":49.2892083333}
{"amenity":"fast_food","name":"McDonald's","tags":{"brand:wikidata":"Q38076","level":"0","brand:wikipedia":"en:McDonald's","cuisine":"burger","takeaway":"yes","addr:city":"Vancouver","addr:housenumber":"88","drive_through":"no","opening_hours":"Su-Th 06:00-23:00; Fr-Sa 00:00-24:00","name:en":"McDonald's","addr:street":"West Pender Street","brand":"McDonald's"},"weight":4,"distance":946.9750588262,"loc":[49.2808969,-123.1073143],"user_lon":-123.1101611111,"user_lat":49.2892083333}
{"amenity":"restaurant","name":"La Mezcaleria","tags":{"addr:housenumber":"68","website":"https:\/\/www.lamezcaleria.ca\/","smoking":"no","cuisine":"mexican","outdoor_seating":"no","addr:street":"East Cordova Street"},"weight":7,"distance":947.0168353939,"loc":[49.2821995,-123.1027434],"user_lon":-123.1101611111,"user_lat":49.2892083333}
{"amenity":"restaurant","name":"Deacon's Corner","tags":{"addr:housenumber":"101","website":"http:\/\/www.deaconscorner.ca\/","opening_hours":"Mo-Fr 08:00-21:00; Sa 09:00-21:00; Su 09:00-17:00","cuisine":"sandwich;burger;breakfast","outdoor_seating":"no","addr:street":"Main Street","addr:postcode":"V6A 2S5"},"weight":7,"distance":950.6010097975,"loc":[49.2839422,-123.0998366],"user_lon":-123.1101611111,"user_lat":49.2892083333}
{"amenity":"restaurant","name":"Taishoken","tags":{"addr:housenumber":"515","payment:credit_cards":"yes","phone":"+1-778-737-3805","opening_hours":"11:30-16:00,17:00-21:30","cuisine":"ramen","addr:street":"Abbott Street","payment:debit_cards":"yes","internet":"wifi","addr:city":"Vancouver"},"weight":7,"distance":951.4843230546,"loc":[49.2807869,-123.1078361],"user_lon":-123.1101611111,"user_lat":49.2892083333}
{"amenity":"cafe","name":"Nosherie","tags":{"opening_hours":"Mo-Fr 07:30-18:00"},"weight":3,"distance":952.9978102852,"loc":[49.2817211,-123.1165551],"user_lon":-123.1101611111,"user_lat":49.2892083333}
{"amenity":"restaurant","name":"Goldies","tags":{"cuisine":"pizza","addr:housenumber":"508","website":"http:\/\/goldiespizza.com","name:en":"Goldies","addr:street":"Abbott Street"},"weight":7,"distance":955.0284092991,"loc":[49.2808034,-123.1074514],"user_lon":-123.1101611111,"user_lat":49.2892083333}
{"amenity":"cafe","name":"Caveman Cafe","tags":{"wheelchair":"yes","website":"http:\/\/www.cavemancafe.ca","diet:paleo":"yes","diet:gluten_free":"yes","level":"0","diet:dairy_free":"yes","diet:vegan":"yes","takeaway":"yes","addr:unit":"1005","addr:city":"Vancouver","diet:vegetarian":"yes","addr:housenumber":"88","diet:halal":"only","phone":"+1-604-331-0668","opening_hours":"Mo-Fr 11:00-22:00; Sa 12:00-22:00; Su 12:00-18:00","outdoor_seating":"no","addr:street":"Pender Street","payment:debit_cards":"yes","email":"info@cavemancafe.ca"},"weight":3,"distance":961.3396145155,"loc":[49.2808098,-123.1070156],"user_lon":-123.1101611111,"user_lat":49.2892083333}
{"amenity":"cafe","name":"Waves Coffee House","tags":{"wheelchair":"yes","addr:housenumber":"1198","phone":"+1-604-568-0390","addr:street":"West Pender Street","addr:postcode":"V6E 2R9","addr:city":"Vancouver"},"weight":3,"distance":961.5578722703,"loc":[49.2882295,-123.1233339],"user_lon":-123.1101611111,"user_lat":49.2892083333}
{"amenity":"bar","name":"Back and Forth Bar","tags":{"note":"They have ping pong. Not sure about how to tag that","addr:housenumber":"303","addr:street":"Columbia Street","addr:city":"Vancouver"},"weight":6,"distance":961.6994161968,"loc":[49.2821955,-123.1024011],"user_lon":-123.1101611111,"user_lat":49.2892083333}
{"amenity":"theatre","name":"Vancouver Playhouse","tags":{"addr:housenumber":"600","addr:street":"Hamilton Street","wikidata":"Q7914233"},"weight":9,"distance":962.8897964427,"loc":[49.2806911,-123.1125574],"user_lon":-123.1101611111,"user_lat":49.2892083333}
{"amenity":"restaurant","name":"Komi","tags":{},"weight":7,"distance":963.1590518936,"loc":[49.2865642,-123.1228071],"user_lon":-123.1101611111,"user_lat":49.2892083333}
{"amenity":"restaurant","name":"Tableau","tags":{},"weight":7,"distance":972.1658327554,"loc":[49.2874987,-123.1233065],"user_lon":-123.1101611111,"user_lat":49.2892083333}
{"amenity":"cafe","name":"Iktsuarpok Coffee Stand","tags":{"addr:housenumber":"425","internet_access":"no","opening_hours":"Mo-Fr 08:30-16:30; Sa 10:00-16:00","cuisine":"coffee_shop","addr:street":"Carrall Street","addr:postcode":"V6B 6E3","takeaway":"only","addr:unit":"30","addr:city":"Vancouver"},"weight":3,"distance":979.1197519043,"loc":[49.2812059,-123.104529],"user_lon":-123.1101611111,"user_lat":49.2892083333}
{"amenity":"fast_food","name":"Einstein Wrap House","tags":{"addr:housenumber":"516","addr:street":"Abbott Street","addr:city":"Vancouver"},"weight":4,"distance":984.2130871353,"loc":[49.280541,-123.1074094],"user_lon":-123.1101611111,"user_lat":49.2892083333}
{"amenity":"fast_food","name":"A&W","tags":{},"weight":4,"distance":984.6358339683,"loc":[49.2880327,-123.1236171],"user_lon":-123.1101611111,"user_lat":49.2892083333}
{"amenity":"restaurant","name":"Notch8","tags":{"addr:city":"Vancouver"},"weight":7,"distance":984.7070405106,"loc":[49.283799,-123.1209105],"user_lon":-123.1101611111,"user_lat":49.2892083333}
{"amenity":"restaurant","name":"Rickys All Day Burger","tags":{"addr:housenumber":"111","addr:street":"Dunsmuir Street"},"weight":7,"distance":987.7983960631,"loc":[49.2803275,-123.1104938],"user_lon":-123.1101611111,"user_lat":49.2892083333}
{"amenity":"cafe","name":"Starbucks","tags":{"brand:wikidata":"Q37158","official_name":"Starbucks Coffee","addr:housenumber":"1014","brand:wikipedia":"en:Starbucks","opening_hours":"Mo-Fr 05:30-19:00; Sa,Su 07:00-18:00","cuisine":"coffee_shop","addr:street":"West Georgia Street","takeaway":"yes","brand":"Starbucks","addr:city":"Vancouver"},"weight":3,"distance":988.5191190362,"loc":[49.2846244,-123.1218388],"user_lon":-123.1101611111,"user_lat":49.2892083333}
{"amenity":"cafe","name":"Jam Cafe","tags":{"addr:housenumber":"556","internet_access":"wlan","phone":"+1-604-336-3554","opening_hours":"Mo-Su 08:00-15:00","addr:street":"Beatty Street","addr:postcode":"V6B 2L3","addr:city":"Vancouver"},"weight":3,"distance":990.306366313,"loc":[49.2803078,-123.1096811],"user_lon":-123.1101611111,"user_lat":49.2892083333}
{"amenity":"cafe","name":"Tim Hortons","tags":{"brand:wikidata":"Q175106","ref":"3719","level":"-1","brand:wikipedia":"en:Tim Hortons","description":"The Tim Hortons is located underground between the Canada Line and the Vancouver Centre Mall.","cuisine":"coffee_shop","takeaway":"yes","brand":"Tim Hortons"},"weight":3,"distance":993.5614614957,"loc":[49.2821466,-123.1185541],"user_lon":-123.1101611111,"user_lat":49.2892083333}
{"amenity":"bar","name":"Devil's Elbow","tags":{"opening_hours":"Mo-Su 11:30-00:00","addr:housenumber":"562","addr:street":"Beatty Street","phone":"+1-604-559-0611","addr:city":"Vancouver"},"weight":6,"distance":994.7483550401,"loc":[49.2802664,-123.1097483],"user_lon":-123.1101611111,"user_lat":49.2892083333}
{"amenity":"restaurant","name":"Domo Sushi","tags":{"cuisine":"japanese;sushi"},"weight":7,"distance":995.5949602801,"loc":[49.2872861,-123.1235682],"user_lon":-123.1101611111,"user_lat":49.2892083333}
{"amenity":"theatre","name":"Cineplex Odeon International Village Cinemas","tags":{"addr:housenumber":"88","alt_name":"Tinseltown","addr:street":"West Pender Street","level":"2","addr:city":"Vancouver"},"weight":9,"distance":996.8729030053,"loc":[49.2805037,-123.1068723],"user_lon":-123.1101611111,"user_lat":49.2892083333}
{"amenity":"cafe","name":"49th Parallel Caf\u00e9 & Lucky's Doughnuts","tags":{"addr:housenumber":"689","opening_hours":"Mo-Fr 06:30-18:00; Sa,Su 07:00-17:00","cuisine":"coffee_shop","outdoor_seating":"yes","addr:street":"Thurlow Street","addr:city":"Vancouver"},"weight":3,"distance":997.7564128954,"loc":[49.2860362,-123.1230296],"user_lon":-123.1101611111,"user_lat":49.2892083333}
{"amenity":"bar","name":"Bismarck","tags":{"addr:housenumber":"526","addr:street":"Abbott Street","addr:city":"Vancouver"},"weight":6,"distance":997.8785961015,"loc":[49.2804152,-123.1074119],"user_lon":-123.1101611111,"user_lat":49.2892083333}
{"amenity":"restaurant","name":"Fatburger","tags":{},"weight":7,"distance":998.2600816884,"loc":[49.2802313,-123.1103114],"user_lon":-123.1101611111,"user_lat":49.2892083333}
{"amenity":"cafe","name":"Starbucks","tags":{"brand:wikidata":"Q37158","official_name":"Starbucks Coffee","internet_access":"wlan","brand:wikipedia":"en:Starbucks","internet_access:fee":"no","cuisine":"coffee_shop","takeaway":"yes","addr:city":"Vancouver","addr:housenumber":"720","opening_hours":"Mo-Fr 05:00-23:00; Sa 05:30-23:30; Su 06:00-23:00","outdoor_seating":"yes","addr:street":"Granville Street","brand":"Starbucks"},"weight":3,"distance":999.177091965,"loc":[49.2820489,-123.118486],"user_lon":-123.1101611111,"user_lat":49.2892083333}
{"amenity":"restaurant","name":"SushiGo","tags":{"addr:housenumber":"570","smoking":"no","cuisine":"sushi","addr:street":"Bute Street","source":"survey","takeaway":"yes","capacity":"30"},"weight":7,"distance":999.973936399,"loc":[49.2879481,-123.1238127],"user_lon":-123.1101611111,"user_lat":49.2892083333}